{
"type": "FeatureCollection",
"name": "Result",
"crs": { "type": "name", "properties": { "name": "urn:ogc:def:crs:OGC:1.3:CRS84" } },
"features": [
{ "type": "Feature", "properties": { "Shape_Leng": 0.07043812473, "Shape_Area": 0.00018223091, "ADM4_EN": "Lere", "ADM4_PCODE": "ID7271010011", "ADM4_REF": null, "ADM4ALT1EN": null, "ADM4ALT2EN": null, "ADM3_EN": "Palu Barat", "ADM3_PCODE": "ID7271010", "ADM2_EN": "Kota Palu", "ADM2_PCODE": "ID7271", "ADM1_EN": "Sulawesi Tengah", "ADM1_PCODE": "ID72", "ADM0_EN": "Indonesia", "ADM0_PCODE": "ID", "date": "2019-12-20", "validOn": "2020-04-01", "validTo": null, "status": "Rusak", "lokasi": "guatemala-volcano_00000002_post_disaster.png" }, "geometry": { "type": "MultiPolygon", "coordinates": [ [ [ [ 119.841937800000096, -0.883582799999942 ], [ 119.841938300000038, -0.883582899999965 ], [ 119.841963600000099, -0.883463499999948 ], [ 119.842028900000059, -0.883151899999973 ], [ 119.842075200000068, -0.882975699999974 ], [ 119.842079300000023, -0.88296 ], [ 119.842079400000102, -0.882959699999958 ], [ 119.84208, -0.88295729999993 ], [ 119.842097900000113, -0.882912099999942 ], [ 119.842123800000081, -0.882845199999963 ], [ 119.842193800000018, -0.882666499999971 ], [ 119.842205800000102, -0.882635899999968 ], [ 119.84220670000002, -0.882633599999963 ], [ 119.842207900000062, -0.88263059999997 ], [ 119.842212700000118, -0.882619499999976 ], [ 119.842250500000091, -0.882530499999973 ], [ 119.842277200000012, -0.882470299999966 ], [ 119.842291700000033, -0.882446699999946 ], [ 119.842361400000073, -0.882331099999931 ], [ 119.842377700000043, -0.882288199999948 ], [ 119.84238490000007, -0.882268199999942 ], [ 119.842385500000091, -0.882267699999943 ], [ 119.842386100000112, -0.882266199999947 ], [ 119.842420800000014, -0.882241199999953 ], [ 119.842430700000023, -0.882211299999938 ], [ 119.842437300000029, -0.88220229999996 ], [ 119.842521200000078, -0.88205419999997 ], [ 119.8426386000001, -0.881841899999927 ], [ 119.842644900000096, -0.881828199999973 ], [ 119.842713400000093, -0.881663499999945 ], [ 119.842809000000102, -0.881476 ], [ 119.842825, -0.881444599999952 ], [ 119.84282410000003, -0.881443699999977 ], [ 119.842831600000068, -0.881427599999938 ], [ 119.842921, -0.881475899999941 ], [ 119.843003400000043, -0.881536599999947 ], [ 119.843119700000102, -0.881536599999947 ], [ 119.843230200000107, -0.881567199999949 ], [ 119.843369100000018, -0.881630199999961 ], [ 119.843442100000061, -0.881672599999945 ], [ 119.843624600000112, -0.88177879999995 ], [ 119.84368290000009, -0.881832899999949 ], [ 119.843778900000075, -0.881920099999945 ], [ 119.843916, -0.882044599999972 ], [ 119.84396490000006, -0.882078199999967 ], [ 119.844014600000037, -0.882112199999938 ], [ 119.844084100000032, -0.882148199999961 ], [ 119.844142300000044, -0.882184299999949 ], [ 119.844249900000023, -0.882220299999972 ], [ 119.844369500000084, -0.882266299999969 ], [ 119.844512500000064, -0.88232869999996 ], [ 119.844585100000018, -0.882371 ], [ 119.844724900000074, -0.882463399999949 ], [ 119.8447787, -0.882494899999926 ], [ 119.844832500000052, -0.882517499999949 ], [ 119.844881800000053, -0.882571499999926 ], [ 119.844940100000031, -0.882598499999972 ], [ 119.845052100000089, -0.882625499999961 ], [ 119.845137200000067, -0.882634499999938 ], [ 119.845226800000091, -0.882638899999961 ], [ 119.845417900000029, -0.882723099999964 ], [ 119.845493500000089, -0.882769499999938 ], [ 119.845636900000045, -0.882814499999938 ], [ 119.845717500000092, -0.882868499999972 ], [ 119.845763500000089, -0.882886 ], [ 119.845919200000026, -0.882945 ], [ 119.8461029, -0.882985499999961 ], [ 119.84629110000003, -0.883012399999927 ], [ 119.846335100000033, -0.883017299999949 ], [ 119.846412100000066, -0.883025799999928 ], [ 119.846483700000022, -0.883025799999928 ], [ 119.8465337, -0.883023199999968 ], [ 119.847144800000024, -0.883041499999933 ], [ 119.847189300000082, -0.88304329999994 ], [ 119.847646300000065, -0.883060899999975 ], [ 119.847876800000108, -0.883067899999958 ], [ 119.848391800000059, -0.883084799999949 ], [ 119.848466200000075, -0.883087399999965 ], [ 119.848790100000087, -0.88309419999996 ], [ 119.849266, -0.883111499999927 ], [ 119.849914, -0.883177599999954 ], [ 119.849946800000112, -0.883180899999957 ], [ 119.850674900000058, -0.883239 ], [ 119.850886900000091, -0.883258799999965 ], [ 119.851246, -0.883317399999953 ], [ 119.851311100000089, -0.883328699999936 ], [ 119.851355900000044, -0.883324099999925 ], [ 119.851467900000102, -0.883301499999959 ], [ 119.851530600000046, -0.883306 ], [ 119.851597800000036, -0.883310399999971 ], [ 119.851682900000014, -0.883314899999959 ], [ 119.851754600000049, -0.883350899999925 ], [ 119.85179380000011, -0.883367399999941 ], [ 119.851839800000107, -0.883386899999948 ], [ 119.852001100000052, -0.883404799999937 ], [ 119.852090700000076, -0.883436299999971 ], [ 119.852207200000066, -0.883458799999971 ], [ 119.852262700000097, -0.883465199999932 ], [ 119.852376900000081, -0.883478299999979 ], [ 119.852394400000094, -0.883480799999973 ], [ 119.852430700000014, -0.883488 ], [ 119.852448600000116, -0.883491599999957 ], [ 119.852462600000081, -0.88349919999996 ], [ 119.852503700000057, -0.883502599999929 ], [ 119.852581400000076, -0.883509 ], [ 119.852623900000026, -0.88351259999996 ], [ 119.852673200000027, -0.883557599999961 ], [ 119.852760600000011, -0.883575599999972 ], [ 119.852847900000029, -0.883593599999926 ], [ 119.852890400000092, -0.883599499999946 ], [ 119.853264900000113, -0.883652099999949 ], [ 119.853411300000062, -0.883675899999957 ], [ 119.853452800000014, -0.883683299999973 ], [ 119.853583600000093, -0.883662299999969 ], [ 119.853602300000034, -0.883666499999947 ], [ 119.853724, -0.883681699999954 ], [ 119.853806700000064, -0.883692 ], [ 119.853923200000054, -0.883696499999928 ], [ 119.8539465, -0.883696399999963 ], [ 119.854093400000011, -0.883718899999963 ], [ 119.854142700000011, -0.883745899999951 ], [ 119.854229200000077, -0.883748099999934 ], [ 119.854317400000014, -0.883750299999974 ], [ 119.854554900000039, -0.883754599999975 ], [ 119.854671400000029, -0.883754499999952 ], [ 119.8548058, -0.883758899999975 ], [ 119.854886400000055, -0.88377689999993 ], [ 119.854987700000038, -0.883793799999978 ], [ 119.855128400000012, -0.883817299999976 ], [ 119.855232500000056, -0.883829499999933 ], [ 119.855280700000094, -0.883835199999965 ], [ 119.855340200000114, -0.883835199999965 ], [ 119.855576200000087, -0.883847499999945 ], [ 119.855718700000011, -0.883863299999973 ], [ 119.855827300000101, -0.883875399999965 ], [ 119.856073700000024, -0.883875199999977 ], [ 119.856226000000106, -0.883897599999955 ], [ 119.856418700000063, -0.883929 ], [ 119.8566068, -0.883955899999933 ], [ 119.856864600000108, -0.883970899999952 ], [ 119.856989900000031, -0.883978199999945 ], [ 119.857070200000067, -0.883981099999971 ], [ 119.857113100000106, -0.883982599999968 ], [ 119.857171400000084, -0.884036699999967 ], [ 119.857186900000102, -0.884037899999953 ], [ 119.857287900000074, -0.884045599999979 ], [ 119.857417700000042, -0.884039099999939 ], [ 119.857471500000088, -0.884036399999957 ], [ 119.857494700000075, -0.884034199999974 ], [ 119.857816500000013, -0.884013599999946 ], [ 119.857897100000059, -0.884040599999935 ], [ 119.858000200000106, -0.884063099999935 ], [ 119.8581378, -0.884055299999943 ], [ 119.858242100000098, -0.884049399999981 ], [ 119.858351600000105, -0.884030899999971 ], [ 119.858562500000062, -0.884014299999933 ], [ 119.858668600000101, -0.884026 ], [ 119.858776800000101, -0.884037899999953 ], [ 119.858882700000095, -0.884066899999937 ], [ 119.858920400000102, -0.884073199999932 ], [ 119.859032800000023, -0.884111899999937 ], [ 119.859118, -0.884170399999959 ], [ 119.859162800000036, -0.884215499999925 ], [ 119.859221100000013, -0.884310199999959 ], [ 119.859248100000059, -0.884373299999936 ], [ 119.859266, -0.884431899999925 ], [ 119.859293, -0.884504 ], [ 119.859373600000026, -0.884571599999958 ], [ 119.859392200000116, -0.884574899999961 ], [ 119.85944, -0.884583499999962 ], [ 119.8594395, -0.884585699999946 ], [ 119.859440900000095, -0.884585099999924 ], [ 119.859561800000051, -0.884603 ], [ 119.85971870000003, -0.884643499999925 ], [ 119.859947200000079, -0.884679399999925 ], [ 119.860175700000013, -0.884742299999971 ], [ 119.860193600000116, -0.884706199999926 ], [ 119.860184600000025, -0.884647599999937 ], [ 119.860135200000059, -0.884575499999926 ], [ 119.860090400000104, -0.884548499999937 ], [ 119.860027700000046, -0.884521499999948 ], [ 119.86002760000008, -0.884480899999971 ], [ 119.860063500000024, -0.884462799999937 ], [ 119.860063400000058, -0.884426699999949 ], [ 119.860054400000081, -0.884363599999972 ], [ 119.860099200000036, -0.884345499999938 ], [ 119.86018880000006, -0.884336499999961 ], [ 119.860251500000118, -0.884336399999938 ], [ 119.860296300000073, -0.884328299999936 ], [ 119.860466200000019, -0.884337699999946 ], [ 119.860643600000117, -0.884159 ], [ 119.860783600000104, -0.884036599999945 ], [ 119.860886300000061, -0.884045899999933 ], [ 119.861082500000066, -0.884064599999931 ], [ 119.86212850000004, -0.883838099999934 ], [ 119.861886, -0.884270799999967 ], [ 119.861528300000032, -0.884866399999964 ], [ 119.861493700000096, -0.884920399999942 ], [ 119.861493500000051, -0.884924299999966 ], [ 119.861484800000085, -0.884938699999964 ], [ 119.861448100000075, -0.885719199999926 ], [ 119.861445900000035, -0.885796599999935 ], [ 119.861426400000028, -0.886154399999953 ], [ 119.861465, -0.886811199999954 ], [ 119.861477200000081, -0.887167099999942 ], [ 119.861493800000062, -0.887299799999937 ], [ 119.861561, -0.88853279999995 ], [ 119.861755400000106, -0.888915 ], [ 119.861855700000092, -0.889116499999943 ], [ 119.862202800000091, -0.889809099999979 ], [ 119.862433700000111, -0.890175899999974 ], [ 119.862789300000031, -0.890744899999959 ], [ 119.862383500000078, -0.89089249999995 ], [ 119.862323500000116, -0.890912899999933 ], [ 119.861972100000116, -0.890932299999974 ], [ 119.861895600000025, -0.890942199999927 ], [ 119.861864, -0.890946199999973 ], [ 119.861847600000033, -0.890950799999928 ], [ 119.861693600000081, -0.89099269999997 ], [ 119.861640100000045, -0.891006199999936 ], [ 119.861547100000053, -0.891032499999937 ], [ 119.861524700000018, -0.891038599999945 ], [ 119.861477600000057, -0.891070899999931 ], [ 119.861402600000019, -0.891121299999952 ], [ 119.861256500000081, -0.891222599999935 ], [ 119.861181200000033, -0.89125249999995 ], [ 119.861133000000109, -0.891271399999937 ], [ 119.861009600000102, -0.891313699999955 ], [ 119.860859500000061, -0.891411299999959 ], [ 119.860859100000084, -0.891411499999947 ], [ 119.860780400000067, -0.891616399999975 ], [ 119.860772700000098, -0.891636199999937 ], [ 119.860542200000054, -0.891505399999971 ], [ 119.86034230000007, -0.89139119999993 ], [ 119.860199200000011, -0.891308899999956 ], [ 119.8598187, -0.891122799999948 ], [ 119.85981860000004, -0.891122799999948 ], [ 119.859687500000064, -0.891098299999953 ], [ 119.85962690000008, -0.891096699999935 ], [ 119.85957540000004, -0.891094599999974 ], [ 119.859549100000095, -0.891093499999954 ], [ 119.85955290000004, -0.891109 ], [ 119.859619700000053, -0.89138829999996 ], [ 119.859639100000095, -0.891671699999961 ], [ 119.859173500000111, -0.891635099999974 ], [ 119.859003200000075, -0.891608099999928 ], [ 119.858839400000079, -0.891581699999961 ], [ 119.858482600000116, -0.891545899999926 ], [ 119.858478200000036, -0.891545899999926 ], [ 119.858470900000043, -0.891545199999939 ], [ 119.858201400000098, -0.89154949999994 ], [ 119.858016, -0.891534099999944 ], [ 119.85787090000008, -0.891521399999931 ], [ 119.857653900000059, -0.891373199999975 ], [ 119.8575763, -0.891319799999962 ], [ 119.857317, -0.891525699999931 ], [ 119.857175300000108, -0.891638 ], [ 119.857038400000079, -0.891734 ], [ 119.856869600000095, -0.891851599999939 ], [ 119.856851100000085, -0.89186449999994 ], [ 119.85674680000011, -0.891952899999978 ], [ 119.856602, -0.892073899999957 ], [ 119.856387800000107, -0.892329299999972 ], [ 119.856387800000107, -0.892331599999977 ], [ 119.8563785, -0.893026499999962 ], [ 119.856359800000064, -0.893024099999934 ], [ 119.855548200000044, -0.892922099999964 ], [ 119.85537080000006, -0.892895899999928 ], [ 119.854915, -0.892828299999962 ], [ 119.854744800000049, -0.892812699999979 ], [ 119.854194400000097, -0.892762299999958 ], [ 119.853295200000048, -0.892679 ], [ 119.853295200000048, -0.892679899999962 ], [ 119.853294900000037, -0.892679899999962 ], [ 119.853294600000027, -0.892686899999944 ], [ 119.85328620000007, -0.892873099999974 ], [ 119.853261500000031, -0.893409099999928 ], [ 119.852802800000063, -0.89341479999996 ], [ 119.852400700000089, -0.893419199999926 ], [ 119.852375400000028, -0.893420099999958 ], [ 119.852324900000099, -0.893420799999944 ], [ 119.852054800000019, -0.893432299999972 ], [ 119.851781300000084, -0.89344269999998 ], [ 119.851781200000119, -0.893444 ], [ 119.851780600000097, -0.893444 ], [ 119.851779800000031, -0.893453299999976 ], [ 119.851771, -0.893565699999954 ], [ 119.851753, -0.893780399999969 ], [ 119.8517266, -0.89411709999996 ], [ 119.85170770000002, -0.894369499999925 ], [ 119.851705700000025, -0.894395199999963 ], [ 119.85161620000008, -0.894395299999928 ], [ 119.851509400000054, -0.894281299999932 ], [ 119.851444700000116, -0.894266099999925 ], [ 119.851380500000118, -0.894251 ], [ 119.851269900000034, -0.894251099999963 ], [ 119.851215, -0.894250799999952 ], [ 119.851214200000072, -0.894251099999963 ], [ 119.851085700000112, -0.894304499999976 ], [ 119.851085400000102, -0.894305199999962 ], [ 119.851084400000104, -0.894305599999939 ], [ 119.851043400000094, -0.894383799999957 ], [ 119.851032900000064, -0.894403399999931 ], [ 119.851015, -0.894521099999963 ], [ 119.851002700000095, -0.894601099999932 ], [ 119.850823600000012, -0.894600299999979 ], [ 119.850781900000015, -0.894600299999979 ], [ 119.850378800000044, -0.89459839999995 ], [ 119.850268, -0.894597899999951 ], [ 119.849939500000119, -0.894596299999932 ], [ 119.849074900000119, -0.894590199999925 ], [ 119.84906090000004, -0.894188099999951 ], [ 119.849056300000029, -0.894038399999943 ], [ 119.8490557, -0.894038299999977 ], [ 119.849055600000042, -0.894034099999942 ], [ 119.849046600000065, -0.894032799999934 ], [ 119.848711700000081, -0.893986699999971 ], [ 119.848710400000073, -0.893986499999926 ], [ 119.8482987000001, -0.893984499999931 ], [ 119.848152900000059, -0.894006599999955 ], [ 119.848016200000075, -0.894025299999953 ], [ 119.847978700000112, -0.894306899999947 ], [ 119.84782, -0.894459199999972 ], [ 119.847561400000018, -0.894704699999977 ], [ 119.847519900000066, -0.89474649999994 ], [ 119.84746650000011, -0.894797399999959 ], [ 119.847281200000111, -0.894987199999946 ], [ 119.847190100000034, -0.895079099999975 ], [ 119.847170400000095, -0.895099 ], [ 119.846630700000105, -0.895099399999935 ], [ 119.845517500000028, -0.895096499999966 ], [ 119.84508, -0.895129499999939 ], [ 119.844522900000015, -0.895169099999976 ], [ 119.844577, -0.89440019999995 ], [ 119.844577600000093, -0.894374299999924 ], [ 119.844604300000015, -0.893761799999936 ], [ 119.844604600000025, -0.893755 ], [ 119.843027600000028, -0.893747499999961 ], [ 119.843385300000023, -0.892958799999974 ], [ 119.843448, -0.892820499999971 ], [ 119.843475300000023, -0.892775099999938 ], [ 119.843667300000106, -0.892442599999924 ], [ 119.843668900000011, -0.892439699999954 ], [ 119.84375440000008, -0.89225289999996 ], [ 119.843810700000063, -0.892136299999947 ], [ 119.843849300000102, -0.892052799999931 ], [ 119.844428200000038, -0.891065699999956 ], [ 119.845375600000011, -0.889450299999964 ], [ 119.845384800000033, -0.889429399999926 ], [ 119.845621300000062, -0.888895099999957 ], [ 119.845632, -0.88887109999996 ], [ 119.845607700000073, -0.888856499999974 ], [ 119.844644800000083, -0.88828 ], [ 119.844273200000089, -0.888054599999975 ], [ 119.844246000000112, -0.888038299999948 ], [ 119.843502400000034, -0.887587199999928 ], [ 119.842115, -0.886745499999961 ], [ 119.841419100000053, -0.886323399999981 ], [ 119.841441300000042, -0.886244699999963 ], [ 119.841477400000031, -0.886116099999924 ], [ 119.841485300000045, -0.886091199999953 ], [ 119.841542100000083, -0.885912099999928 ], [ 119.841544800000065, -0.885900499999934 ], [ 119.841580600000043, -0.885694099999967 ], [ 119.841587400000094, -0.885617399999944 ], [ 119.841590400000086, -0.88544909999996 ], [ 119.841591300000118, -0.885433499999976 ], [ 119.841591900000026, -0.885393299999976 ], [ 119.841604500000017, -0.885179 ], [ 119.841620700000021, -0.885007299999927 ], [ 119.841693400000054, -0.884788399999934 ], [ 119.841696900000102, -0.884777 ], [ 119.841697300000078, -0.884774899999968 ], [ 119.841750200000092, -0.884496099999978 ], [ 119.841768700000102, -0.884458799999948 ], [ 119.841774900000019, -0.884423 ], [ 119.841785700000059, -0.884390399999972 ], [ 119.841811300000018, -0.884343 ], [ 119.841819100000066, -0.884291899999937 ], [ 119.8418517, -0.88411439999993 ], [ 119.841885300000058, -0.883923099999947 ], [ 119.841936, -0.883593799999971 ], [ 119.8419364, -0.883592199999953 ], [ 119.841937800000096, -0.883582799999942 ] ] ] ] } },
{ "type": "Feature", "properties": { "Shape_Leng": 0.03187860013, "Shape_Area": 5.073454e-05, "ADM4_EN": "Siranindi", "ADM4_PCODE": "ID7271010006", "ADM4_REF": null, "ADM4ALT1EN": null, "ADM4ALT2EN": null, "ADM3_EN": "Palu Barat", "ADM3_PCODE": "ID7271010", "ADM2_EN": "Kota Palu", "ADM2_PCODE": "ID7271", "ADM1_EN": "Sulawesi Tengah", "ADM1_PCODE": "ID72", "ADM0_EN": "Indonesia", "ADM0_PCODE": "ID", "date": "2019-12-20", "validOn": "2020-04-01", "validTo": null, "status": "Rusak", "lokasi": "guatemala-volcano_00000006_post_disaster.png" }, "geometry": { "type": "MultiPolygon", "coordinates": [ [ [ [ 119.859804900000086, -0.895307499999944 ], [ 119.85996590000002, -0.89538959999993 ], [ 119.861724300000105, -0.896290699999952 ], [ 119.861749700000018, -0.896303699999976 ], [ 119.86179350000009, -0.896325899999965 ], [ 119.862999100000025, -0.896938 ], [ 119.863027200000033, -0.896960899999954 ], [ 119.863027000000102, -0.896963699999958 ], [ 119.863041800000019, -0.897048499999926 ], [ 119.86302610000007, -0.897099299999979 ], [ 119.862837500000069, -0.897486099999981 ], [ 119.86275390000003, -0.897648499999946 ], [ 119.862666200000035, -0.898581 ], [ 119.86257640000008, -0.899620899999945 ], [ 119.862553600000069, -0.899653099999966 ], [ 119.862538, -0.899675199999933 ], [ 119.862465500000098, -0.900623099999962 ], [ 119.8624694, -0.90104789999998 ], [ 119.86245990000009, -0.901286199999959 ], [ 119.8624287, -0.901868199999967 ], [ 119.862456700000052, -0.90187659999998 ], [ 119.862462600000072, -0.901866499999926 ], [ 119.862463300000059, -0.901866699999971 ], [ 119.862463200000093, -0.901866799999937 ], [ 119.862457100000029, -0.901876699999946 ], [ 119.862447700000075, -0.901891899999953 ], [ 119.862424800000099, -0.901930599999957 ], [ 119.862314200000014, -0.902275199999963 ], [ 119.862160700000118, -0.902756499999953 ], [ 119.861955400000056, -0.903400099999942 ], [ 119.861810100000071, -0.903914899999961 ], [ 119.861732800000027, -0.904192399999943 ], [ 119.861720700000092, -0.90423149999998 ], [ 119.861704600000053, -0.904288699999938 ], [ 119.861703100000113, -0.904288299999962 ], [ 119.86167730000011, -0.904281599999933 ], [ 119.861680500000034, -0.904265299999963 ], [ 119.86054850000005, -0.903980499999932 ], [ 119.860540900000046, -0.903978499999937 ], [ 119.860178100000098, -0.903884399999924 ], [ 119.859298600000102, -0.903636499999948 ], [ 119.859294100000056, -0.903635299999962 ], [ 119.859289200000035, -0.903648899999951 ], [ 119.859277900000052, -0.903645799999936 ], [ 119.859157800000048, -0.903968099999929 ], [ 119.859153200000037, -0.903970299999969 ], [ 119.85906870000008, -0.904012099999932 ], [ 119.859039200000097, -0.904025699999977 ], [ 119.859000300000048, -0.904045899999971 ], [ 119.858968600000026, -0.904061599999977 ], [ 119.858682800000111, -0.904173799999967 ], [ 119.858579600000098, -0.904181799999947 ], [ 119.858244, -0.904229199999975 ], [ 119.857926800000087, -0.904266199999938 ], [ 119.857716800000048, -0.904266299999961 ], [ 119.857622000000106, -0.904265299999963 ], [ 119.857602400000019, -0.904285699999946 ], [ 119.857510400000024, -0.90437849999995 ], [ 119.857460100000026, -0.904424199999937 ], [ 119.857335100000114, -0.904533599999979 ], [ 119.857279800000015, -0.904594299999928 ], [ 119.857184500000017, -0.904693899999927 ], [ 119.857182, -0.904696499999943 ], [ 119.856960200000117, -0.904682099999945 ], [ 119.856546800000046, -0.904587599999957 ], [ 119.856602, -0.904343799999936 ], [ 119.856630500000051, -0.904215099999931 ], [ 119.856643100000042, -0.904178799999954 ], [ 119.856727, -0.903937199999973 ], [ 119.856741700000043, -0.903882899999928 ], [ 119.8567868, -0.903687 ], [ 119.856801500000074, -0.903631399999938 ], [ 119.856816, -0.903569699999935 ], [ 119.856824, -0.903535199999965 ], [ 119.856976700000018, -0.902951599999938 ], [ 119.856980300000032, -0.902937399999928 ], [ 119.856980800000088, -0.902935799999966 ], [ 119.856991300000118, -0.902896 ], [ 119.856991700000094, -0.902894299999957 ], [ 119.857164500000067, -0.902382199999977 ], [ 119.857209400000102, -0.902243799999951 ], [ 119.857246700000019, -0.902120799999977 ], [ 119.857528600000023, -0.901190499999927 ], [ 119.857641400000034, -0.900814599999933 ], [ 119.857793700000116, -0.900307099999964 ], [ 119.8561664, -0.899732899999947 ], [ 119.856166700000017, -0.899728799999934 ], [ 119.856156300000066, -0.899725099999955 ], [ 119.856158500000106, -0.899698799999953 ], [ 119.856265400000098, -0.898424099999943 ], [ 119.856266300000016, -0.898343899999929 ], [ 119.856269700000098, -0.898053 ], [ 119.856273400000077, -0.897717199999931 ], [ 119.856276, -0.897171799999967 ], [ 119.856276, -0.897167899999943 ], [ 119.8563, -0.89640559999998 ], [ 119.856330300000081, -0.89528839999997 ], [ 119.856335300000069, -0.895288699999981 ], [ 119.856556300000079, -0.895301399999937 ], [ 119.856731300000092, -0.895313 ], [ 119.856731700000068, -0.895311499999934 ], [ 119.8567385, -0.895311899999967 ], [ 119.856811400000083, -0.895033099999978 ], [ 119.856853000000115, -0.894887499999925 ], [ 119.856994100000065, -0.894738599999926 ], [ 119.857226400000059, -0.894498599999963 ], [ 119.857427100000109, -0.894368499999928 ], [ 119.857480500000065, -0.894335799999965 ], [ 119.857928500000071, -0.894269799999961 ], [ 119.857950900000105, -0.894266699999946 ], [ 119.858038300000089, -0.894349199999965 ], [ 119.858092600000077, -0.894402299999967 ], [ 119.858213, -0.894481199999973 ], [ 119.858221300000082, -0.894486 ], [ 119.858242500000074, -0.8945 ], [ 119.85834490000002, -0.894557599999928 ], [ 119.858521700000097, -0.89466 ], [ 119.858883400000082, -0.894840099999954 ], [ 119.859725900000058, -0.895267199999978 ], [ 119.859804900000086, -0.895307499999944 ] ] ] ] } },
{ "type": "Feature", "properties": { "Shape_Leng": 0.03957883561, "Shape_Area": 4.198201e-05, "ADM4_EN": "Baru", "ADM4_PCODE": "ID7271010005", "ADM4_REF": null, "ADM4ALT1EN": null, "ADM4ALT2EN": null, "ADM3_EN": "Palu Barat", "ADM3_PCODE": "ID7271010", "ADM2_EN": "Kota Palu", "ADM2_PCODE": "ID7271", "ADM1_EN": "Sulawesi Tengah", "ADM1_PCODE": "ID72", "ADM0_EN": "Indonesia", "ADM0_PCODE": "ID", "date": "2019-12-20", "validOn": "2020-04-01", "validTo": null, "status": "Rusak", "lokasi": "guatemala-volcano_00000006_post_disaster.png" }, "geometry": { "type": "MultiPolygon", "coordinates": [ [ [ [ 119.856335300000069, -0.895288699999981 ], [ 119.856335300000069, -0.895287899999971 ], [ 119.855306400000018, -0.895306299999959 ], [ 119.855198, -0.895304799999963 ], [ 119.855168900000081, -0.895305299999961 ], [ 119.854851, -0.895299799999975 ], [ 119.85463720000007, -0.895296799999926 ], [ 119.854557100000079, -0.895297899999946 ], [ 119.854007600000045, -0.895305299999961 ], [ 119.853835600000025, -0.895309299999951 ], [ 119.853657400000088, -0.895322 ], [ 119.853332100000102, -0.895347499999957 ], [ 119.8533251, -0.895348099999978 ], [ 119.852124600000025, -0.895445299999949 ], [ 119.851612600000067, -0.895487799999955 ], [ 119.851444, -0.895500399999946 ], [ 119.850577, -0.895569399999943 ], [ 119.850546800000075, -0.895571799999971 ], [ 119.850544500000069, -0.895572199999947 ], [ 119.850296100000037, -0.895617299999969 ], [ 119.850271500000076, -0.895621799999958 ], [ 119.85027910000008, -0.895212099999981 ], [ 119.850276100000087, -0.895203099999947 ], [ 119.850268, -0.89459869999996 ], [ 119.850268, -0.894597899999951 ], [ 119.850378800000044, -0.89459839999995 ], [ 119.850781900000015, -0.894600299999979 ], [ 119.850823600000012, -0.894600299999979 ], [ 119.851002700000095, -0.894601099999932 ], [ 119.851015, -0.894521099999963 ], [ 119.851032900000064, -0.894403399999931 ], [ 119.851043400000094, -0.894383799999957 ], [ 119.851084400000104, -0.894305599999939 ], [ 119.851085400000102, -0.894305199999962 ], [ 119.851085700000112, -0.894304499999976 ], [ 119.851214200000072, -0.894251099999963 ], [ 119.851215, -0.894250799999952 ], [ 119.851269900000034, -0.894251099999963 ], [ 119.851380500000118, -0.894251 ], [ 119.851444700000116, -0.894266099999925 ], [ 119.851509400000054, -0.894281299999932 ], [ 119.85161620000008, -0.894395299999928 ], [ 119.851705700000025, -0.894395199999963 ], [ 119.85170770000002, -0.894369499999925 ], [ 119.8517266, -0.89411709999996 ], [ 119.851753, -0.893780399999969 ], [ 119.851771, -0.893565699999954 ], [ 119.851779800000031, -0.893453299999976 ], [ 119.851780600000097, -0.893444 ], [ 119.851781200000119, -0.893444 ], [ 119.851781300000084, -0.89344269999998 ], [ 119.852054800000019, -0.893432299999972 ], [ 119.852324900000099, -0.893420799999944 ], [ 119.852375400000028, -0.893420099999958 ], [ 119.852400700000089, -0.893419199999926 ], [ 119.852802800000063, -0.89341479999996 ], [ 119.853261500000031, -0.893409099999928 ], [ 119.85328620000007, -0.892873099999974 ], [ 119.853294600000027, -0.892686899999944 ], [ 119.853294900000037, -0.892679899999962 ], [ 119.853295200000048, -0.892679899999962 ], [ 119.853295200000048, -0.892679 ], [ 119.854194400000097, -0.892762299999958 ], [ 119.854744800000049, -0.892812699999979 ], [ 119.854915, -0.892828299999962 ], [ 119.85537080000006, -0.892895899999928 ], [ 119.855548200000044, -0.892922099999964 ], [ 119.856359800000064, -0.893024099999934 ], [ 119.8563785, -0.893026499999962 ], [ 119.856387800000107, -0.892331599999977 ], [ 119.856387800000107, -0.892329299999972 ], [ 119.856602, -0.892073899999957 ], [ 119.85674680000011, -0.891952899999978 ], [ 119.856851100000085, -0.89186449999994 ], [ 119.856869600000095, -0.891851599999939 ], [ 119.857038400000079, -0.891734 ], [ 119.857175300000108, -0.891638 ], [ 119.857317, -0.891525699999931 ], [ 119.8575763, -0.891319799999962 ], [ 119.857653900000059, -0.891373199999975 ], [ 119.85787090000008, -0.891521399999931 ], [ 119.858016, -0.891534099999944 ], [ 119.858201400000098, -0.89154949999994 ], [ 119.858470900000043, -0.891545199999939 ], [ 119.858478200000036, -0.891545899999926 ], [ 119.858482600000116, -0.891545899999926 ], [ 119.858839400000079, -0.891581699999961 ], [ 119.859003200000075, -0.891608099999928 ], [ 119.859173500000111, -0.891635099999974 ], [ 119.859639100000095, -0.891671699999961 ], [ 119.859619700000053, -0.89138829999996 ], [ 119.85955290000004, -0.891109 ], [ 119.859549100000095, -0.891093499999954 ], [ 119.85957540000004, -0.891094599999974 ], [ 119.85962690000008, -0.891096699999935 ], [ 119.859687500000064, -0.891098299999953 ], [ 119.85981860000004, -0.891122799999948 ], [ 119.8598187, -0.891122799999948 ], [ 119.860199200000011, -0.891308899999956 ], [ 119.86034230000007, -0.89139119999993 ], [ 119.860542200000054, -0.891505399999971 ], [ 119.860772700000098, -0.891636199999937 ], [ 119.860780400000067, -0.891616399999975 ], [ 119.860859100000084, -0.891411499999947 ], [ 119.860859500000061, -0.891411299999959 ], [ 119.861009600000102, -0.891313699999955 ], [ 119.861133000000109, -0.891271399999937 ], [ 119.861181200000033, -0.89125249999995 ], [ 119.861256500000081, -0.891222599999935 ], [ 119.861402600000019, -0.891121299999952 ], [ 119.861477600000057, -0.891070899999931 ], [ 119.861524700000018, -0.891038599999945 ], [ 119.861547100000053, -0.891032499999937 ], [ 119.861640100000045, -0.891006199999936 ], [ 119.861693600000081, -0.89099269999997 ], [ 119.861847600000033, -0.890950799999928 ], [ 119.861864, -0.890946199999973 ], [ 119.861895600000025, -0.890942199999927 ], [ 119.861972100000116, -0.890932299999974 ], [ 119.862323500000116, -0.890912899999933 ], [ 119.862383500000078, -0.89089249999995 ], [ 119.862791300000026, -0.890754299999969 ], [ 119.863133400000038, -0.89131029999993 ], [ 119.863723700000037, -0.891951199999937 ], [ 119.863981900000113, -0.89223149999998 ], [ 119.864208700000063, -0.892481799999928 ], [ 119.864541, -0.892776599999934 ], [ 119.864802600000075, -0.893013199999928 ], [ 119.864733600000022, -0.893092799999977 ], [ 119.864679200000069, -0.893155599999943 ], [ 119.864365500000076, -0.893469399999958 ], [ 119.864230800000087, -0.893605899999955 ], [ 119.863980400000059, -0.89384339999998 ], [ 119.863746100000071, -0.894002099999966 ], [ 119.863670600000091, -0.89406159999993 ], [ 119.863535200000115, -0.894172199999957 ], [ 119.863456400000018, -0.894262199999957 ], [ 119.863449, -0.894270499999948 ], [ 119.863396900000112, -0.894330299999979 ], [ 119.863382700000102, -0.894344799999942 ], [ 119.863376100000096, -0.894352199999958 ], [ 119.8632172, -0.894514099999981 ], [ 119.863102500000082, -0.894631 ], [ 119.863102300000037, -0.894631199999935 ], [ 119.863101, -0.894632499999943 ], [ 119.862840900000037, -0.894871299999977 ], [ 119.862736700000028, -0.894978599999945 ], [ 119.862727800000016, -0.894987799999967 ], [ 119.862763600000108, -0.895095599999934 ], [ 119.862810500000023, -0.895428599999946 ], [ 119.862809, -0.895470799999941 ], [ 119.86280910000005, -0.895577899999978 ], [ 119.86285010000006, -0.895735 ], [ 119.8628936, -0.895902099999944 ], [ 119.862910600000077, -0.896010799999942 ], [ 119.863035800000034, -0.896802899999955 ], [ 119.863035400000058, -0.896808199999953 ], [ 119.863024800000062, -0.896951 ], [ 119.862999100000025, -0.896938 ], [ 119.86179350000009, -0.896325899999965 ], [ 119.861749700000018, -0.896303699999976 ], [ 119.861724300000105, -0.896290699999952 ], [ 119.85996590000002, -0.89538959999993 ], [ 119.859804900000086, -0.895307499999944 ], [ 119.859725900000058, -0.895267199999978 ], [ 119.858883400000082, -0.894840099999954 ], [ 119.858521700000097, -0.89466 ], [ 119.85834490000002, -0.894557599999928 ], [ 119.858242500000074, -0.8945 ], [ 119.858221300000082, -0.894486 ], [ 119.858213, -0.894481199999973 ], [ 119.858092600000077, -0.894402299999967 ], [ 119.858038300000089, -0.894349199999965 ], [ 119.857950900000105, -0.894266699999946 ], [ 119.857928500000071, -0.894269799999961 ], [ 119.857480500000065, -0.894335799999965 ], [ 119.857427100000109, -0.894368499999928 ], [ 119.857226400000059, -0.894498599999963 ], [ 119.856994100000065, -0.894738599999926 ], [ 119.856853000000115, -0.894887499999925 ], [ 119.856811400000083, -0.895033099999978 ], [ 119.8567385, -0.895311899999967 ], [ 119.856731700000068, -0.895311499999934 ], [ 119.856731300000092, -0.895313 ], [ 119.856556300000079, -0.895301399999937 ], [ 119.856335300000069, -0.895288699999981 ] ] ] ] } },
{ "type": "Feature", "properties": { "Shape_Leng": 0.04438530174, "Shape_Area": 6.200526e-05, "ADM4_EN": "Kamonji", "ADM4_PCODE": "ID7271010007", "ADM4_REF": null, "ADM4ALT1EN": null, "ADM4ALT2EN": null, "ADM3_EN": "Palu Barat", "ADM3_PCODE": "ID7271010", "ADM2_EN": "Kota Palu", "ADM2_PCODE": "ID7271", "ADM1_EN": "Sulawesi Tengah", "ADM1_PCODE": "ID72", "ADM0_EN": "Indonesia", "ADM0_PCODE": "ID", "date": "2019-12-20", "validOn": "2020-04-01", "validTo": null, "status": "Rusak", "lokasi": "guatemala-volcano_00000013_post_disaster.png" }, "geometry": { "type": "MultiPolygon", "coordinates": [ [ [ [ 119.850268, -0.894597899999951 ], [ 119.850268, -0.89459869999996 ], [ 119.850276100000087, -0.895203099999947 ], [ 119.85027910000008, -0.895212099999981 ], [ 119.850271500000076, -0.895621799999958 ], [ 119.850296100000037, -0.895617299999969 ], [ 119.850544500000069, -0.895572199999947 ], [ 119.850546800000075, -0.895571799999971 ], [ 119.850577, -0.895569399999943 ], [ 119.851444, -0.895500399999946 ], [ 119.851612600000067, -0.895487799999955 ], [ 119.852124600000025, -0.895445299999949 ], [ 119.8533251, -0.895348099999978 ], [ 119.853332100000102, -0.895347499999957 ], [ 119.853657400000088, -0.895322 ], [ 119.853835600000025, -0.895309299999951 ], [ 119.854007600000045, -0.895305299999961 ], [ 119.854557100000079, -0.895297899999946 ], [ 119.85463720000007, -0.895296799999926 ], [ 119.854851, -0.895299799999975 ], [ 119.855168900000081, -0.895305299999961 ], [ 119.855198, -0.895304799999963 ], [ 119.855306400000018, -0.895306299999959 ], [ 119.856335300000069, -0.895287899999971 ], [ 119.856335300000069, -0.895288699999981 ], [ 119.856330300000081, -0.89528839999997 ], [ 119.8563, -0.89640559999998 ], [ 119.856276, -0.897167899999943 ], [ 119.856276, -0.897171799999967 ], [ 119.856273400000077, -0.897717199999931 ], [ 119.856269700000098, -0.898053 ], [ 119.856266300000016, -0.898343899999929 ], [ 119.856265400000098, -0.898424099999943 ], [ 119.856158500000106, -0.899698799999953 ], [ 119.856156300000066, -0.899725099999955 ], [ 119.856166700000017, -0.899728799999934 ], [ 119.8561664, -0.899732899999947 ], [ 119.857793700000116, -0.900307099999964 ], [ 119.857641400000034, -0.900814599999933 ], [ 119.857528600000023, -0.901190499999927 ], [ 119.857246700000019, -0.902120799999977 ], [ 119.857209400000102, -0.902243799999951 ], [ 119.857164500000067, -0.902382199999977 ], [ 119.856991700000094, -0.902894299999957 ], [ 119.856991300000118, -0.902896 ], [ 119.856980800000088, -0.902935799999966 ], [ 119.856980300000032, -0.902937399999928 ], [ 119.856976700000018, -0.902951599999938 ], [ 119.856824, -0.903535199999965 ], [ 119.856816, -0.903569699999935 ], [ 119.856801500000074, -0.903631399999938 ], [ 119.8567868, -0.903687 ], [ 119.856741700000043, -0.903882899999928 ], [ 119.856727, -0.903937199999973 ], [ 119.856643100000042, -0.904178799999954 ], [ 119.856630500000051, -0.904215099999931 ], [ 119.856602, -0.904343799999936 ], [ 119.856546800000046, -0.904587599999957 ], [ 119.856960200000117, -0.904682099999945 ], [ 119.857182, -0.904696499999943 ], [ 119.857158700000014, -0.90472 ], [ 119.857126900000026, -0.904727399999956 ], [ 119.857023800000093, -0.904750499999977 ], [ 119.856730200000015, -0.904998499999977 ], [ 119.85633340000004, -0.905214599999965 ], [ 119.856055800000036, -0.905454 ], [ 119.855505000000107, -0.905564 ], [ 119.855231200000048, -0.905572899999925 ], [ 119.854558700000098, -0.905592199999944 ], [ 119.854473200000029, -0.90559769999993 ], [ 119.854022100000066, -0.905627099999947 ], [ 119.853995, -0.905628899999954 ], [ 119.853989500000012, -0.905629 ], [ 119.85388730000011, -0.905635199999949 ], [ 119.85353, -0.905645499999935 ], [ 119.853531, -0.905692399999964 ], [ 119.853320600000075, -0.90587679999993 ], [ 119.853529, -0.905691899999965 ], [ 119.853535500000021, -0.904228499999931 ], [ 119.85296320000009, -0.904201 ], [ 119.852322700000059, -0.904170299999976 ], [ 119.852302300000019, -0.904169299999978 ], [ 119.851963200000114, -0.904154 ], [ 119.851587700000096, -0.904137 ], [ 119.851398, -0.904128399999934 ], [ 119.851398300000028, -0.90412589999994 ], [ 119.851398, -0.90412589999994 ], [ 119.851485700000012, -0.903412499999945 ], [ 119.851542600000016, -0.902948399999957 ], [ 119.851547500000038, -0.902906099999939 ], [ 119.851559700000053, -0.902801 ], [ 119.851567500000101, -0.902728099999933 ], [ 119.851567500000101, -0.902714499999945 ], [ 119.851567500000101, -0.902711499999953 ], [ 119.851606900000093, -0.902341399999955 ], [ 119.851621800000089, -0.902204499999925 ], [ 119.851666800000089, -0.90179 ], [ 119.851704400000017, -0.901698599999975 ], [ 119.851705500000094, -0.901695699999948 ], [ 119.85170590000007, -0.901694799999973 ], [ 119.851706700000022, -0.901692899999944 ], [ 119.851693200000113, -0.901647199999957 ], [ 119.851688400000057, -0.901633299999958 ], [ 119.851688400000057, -0.90163089999993 ], [ 119.851682800000049, -0.90096049999994 ], [ 119.851678000000106, -0.90038039999996 ], [ 119.851678000000106, -0.900379599999951 ], [ 119.851610800000117, -0.899451899999974 ], [ 119.851560400000039, -0.898754599999961 ], [ 119.851481500000091, -0.897664599999928 ], [ 119.849699100000066, -0.897840299999928 ], [ 119.84928350000007, -0.897880699999973 ], [ 119.849099300000034, -0.897898599999962 ], [ 119.848802100000057, -0.897928299999933 ], [ 119.848491300000092, -0.897959299999968 ], [ 119.848097200000097, -0.897998099999938 ], [ 119.848097100000018, -0.897996499999977 ], [ 119.848093600000084, -0.89782409999998 ], [ 119.848089800000025, -0.897635 ], [ 119.848083400000064, -0.897320499999978 ], [ 119.848082300000101, -0.897267899999974 ], [ 119.848078700000087, -0.897087699999929 ], [ 119.848071700000105, -0.896741799999972 ], [ 119.848067700000115, -0.89649739999993 ], [ 119.8477, -0.896487799999932 ], [ 119.847621000000117, -0.896485199999972 ], [ 119.847147800000016, -0.896424099999933 ], [ 119.847157100000118, -0.89587709999995 ], [ 119.847175000000107, -0.895100799999966 ], [ 119.847170300000016, -0.895100799999966 ], [ 119.847281200000111, -0.894987199999946 ], [ 119.84746650000011, -0.894797399999959 ], [ 119.847519900000066, -0.89474649999994 ], [ 119.847561400000018, -0.894704699999977 ], [ 119.84782, -0.894459199999972 ], [ 119.847978700000112, -0.894306899999947 ], [ 119.848016200000075, -0.894025299999953 ], [ 119.848152900000059, -0.894006599999955 ], [ 119.8482987000001, -0.893984499999931 ], [ 119.848710400000073, -0.893986499999926 ], [ 119.848711700000081, -0.893986699999971 ], [ 119.849046600000065, -0.894032799999934 ], [ 119.849055600000042, -0.894034099999942 ], [ 119.8490557, -0.894038299999977 ], [ 119.849056300000029, -0.894038399999943 ], [ 119.84906090000004, -0.894188099999951 ], [ 119.849074900000119, -0.894590199999925 ], [ 119.849939500000119, -0.894596299999932 ], [ 119.850268, -0.894597899999951 ] ] ] ] } },
{ "type": "Feature", "properties": { "Shape_Leng": 0.06691458965, "Shape_Area": 0.00015746766, "ADM4_EN": "Donggala Kodi", "ADM4_PCODE": "ID7271012001", "ADM4_REF": null, "ADM4ALT1EN": null, "ADM4ALT2EN": null, "ADM3_EN": "Ulujadi", "ADM3_PCODE": "ID7271012", "ADM2_EN": "Kota Palu", "ADM2_PCODE": "ID7271", "ADM1_EN": "Sulawesi Tengah", "ADM1_PCODE": "ID72", "ADM0_EN": "Indonesia", "ADM0_PCODE": "ID", "date": "2019-12-20", "validOn": "2020-04-01", "validTo": null, "status": "Rusak", "lokasi": "guatemala-volcano_00000026_post_disaster.png" }, "geometry": { "type": "MultiPolygon", "coordinates": [ [ [ [ 119.847281200000111, -0.894987199999946 ], [ 119.847170300000016, -0.895100799999966 ], [ 119.847175000000107, -0.895100799999966 ], [ 119.847157100000118, -0.89587709999995 ], [ 119.847147800000016, -0.896424099999933 ], [ 119.847621000000117, -0.896485199999972 ], [ 119.8477, -0.896487799999932 ], [ 119.848067700000115, -0.89649739999993 ], [ 119.848071700000105, -0.896741799999972 ], [ 119.848078700000087, -0.897087699999929 ], [ 119.848082300000101, -0.897267899999974 ], [ 119.848083400000064, -0.897320499999978 ], [ 119.848089800000025, -0.897635 ], [ 119.848093600000084, -0.89782409999998 ], [ 119.848097100000018, -0.897996499999977 ], [ 119.848097200000097, -0.897998099999938 ], [ 119.848491300000092, -0.897959299999968 ], [ 119.848802100000057, -0.897928299999933 ], [ 119.849099300000034, -0.897898599999962 ], [ 119.84928350000007, -0.897880699999973 ], [ 119.849699100000066, -0.897840299999928 ], [ 119.851481500000091, -0.897664599999928 ], [ 119.851560400000039, -0.898754599999961 ], [ 119.851610800000117, -0.899451899999974 ], [ 119.851678000000106, -0.900379599999951 ], [ 119.851678000000106, -0.90038039999996 ], [ 119.851682800000049, -0.90096049999994 ], [ 119.851688400000057, -0.90163089999993 ], [ 119.851688400000057, -0.901633299999958 ], [ 119.851693200000113, -0.901647199999957 ], [ 119.851706700000022, -0.901692899999944 ], [ 119.85170590000007, -0.901694799999973 ], [ 119.850339100000042, -0.90152379999995 ], [ 119.8502036000001, -0.901506799999936 ], [ 119.850105100000064, -0.901494199999945 ], [ 119.849993400000017, -0.901479799999947 ], [ 119.84989320000011, -0.901466899999946 ], [ 119.849283200000059, -0.901407699999936 ], [ 119.849187900000061, -0.901407399999925 ], [ 119.848174300000096, -0.901404399999933 ], [ 119.847844, -0.901402799999971 ], [ 119.847281200000111, -0.901410399999975 ], [ 119.845974200000114, -0.901428099999976 ], [ 119.845810800000095, -0.901429599999972 ], [ 119.844578800000022, -0.901475699999935 ], [ 119.844578700000056, -0.901475699999935 ], [ 119.844161800000052, -0.901476 ], [ 119.843653800000084, -0.901446 ], [ 119.843313700000067, -0.901424899999938 ], [ 119.843266, -0.901426699999945 ], [ 119.842847300000017, -0.901439399999958 ], [ 119.842847900000038, -0.901442499999973 ], [ 119.842847300000017, -0.901442499999973 ], [ 119.842891500000064, -0.901683 ], [ 119.842900100000065, -0.901730499999928 ], [ 119.8427378, -0.902024199999971 ], [ 119.84262410000008, -0.902229299999931 ], [ 119.842372800000021, -0.902307299999961 ], [ 119.842353300000013, -0.902313299999946 ], [ 119.841836700000044, -0.90243849999996 ], [ 119.841625200000067, -0.902554099999975 ], [ 119.841508800000042, -0.902617699999951 ], [ 119.8414408000001, -0.902654799999937 ], [ 119.841347300000052, -0.902705199999957 ], [ 119.840902100000108, -0.902908499999967 ], [ 119.840722700000015, -0.90308669999996 ], [ 119.840531500000111, -0.903274099999976 ], [ 119.84018970000011, -0.903556099999946 ], [ 119.83986850000008, -0.90358759999998 ], [ 119.839798100000053, -0.903597799999943 ], [ 119.839216, -0.903679099999977 ], [ 119.838864300000068, -0.903814699999941 ], [ 119.838541700000064, -0.904173 ], [ 119.836522900000091, -0.904445499999952 ], [ 119.836443700000018, -0.90445619999997 ], [ 119.834601400000111, -0.904492799999957 ], [ 119.834429300000011, -0.904517299999952 ], [ 119.833856400000059, -0.904598699999951 ], [ 119.832878400000027, -0.904737799999964 ], [ 119.832520300000056, -0.90476179999996 ], [ 119.832519800000114, -0.904761899999926 ], [ 119.831328900000017, -0.904841799999929 ], [ 119.831320400000095, -0.904623899999933 ], [ 119.827414700000077, -0.904627 ], [ 119.827190700000074, -0.904634199999975 ], [ 119.826846600000067, -0.901354099999935 ], [ 119.826846500000102, -0.901353399999948 ], [ 119.827586200000042, -0.901080699999966 ], [ 119.827621100000101, -0.901067699999942 ], [ 119.827988400000095, -0.90097 ], [ 119.828283, -0.900978799999962 ], [ 119.828445800000054, -0.900889799999959 ], [ 119.829574, -0.900273 ], [ 119.829688600000054, -0.900224499999979 ], [ 119.829850400000055, -0.900153399999965 ], [ 119.830251, -0.899965 ], [ 119.830433200000016, -0.899786099999972 ], [ 119.830510300000014, -0.899696799999958 ], [ 119.830769300000043, -0.899396899999942 ], [ 119.830789400000072, -0.899365499999931 ], [ 119.830903400000011, -0.89918659999995 ], [ 119.830984100000023, -0.89906 ], [ 119.831079500000101, -0.898950199999945 ], [ 119.831138100000089, -0.898882199999946 ], [ 119.831341600000087, -0.898724699999946 ], [ 119.831490800000097, -0.898610499999961 ], [ 119.831669300000044, -0.898472699999957 ], [ 119.831726800000069, -0.898418199999981 ], [ 119.831951300000014, -0.898203199999955 ], [ 119.831954900000028, -0.898202099999935 ], [ 119.831957300000113, -0.898199799999929 ], [ 119.836368200000038, -0.896866399999965 ], [ 119.836701700000049, -0.89639 ], [ 119.837157100000013, -0.896108799999979 ], [ 119.837377100000026, -0.895971799999927 ], [ 119.837754300000029, -0.895781599999964 ], [ 119.838121600000022, -0.895619299999964 ], [ 119.838252600000033, -0.895543299999929 ], [ 119.838355200000024, -0.895477099999937 ], [ 119.838404600000104, -0.895443599999965 ], [ 119.838452600000096, -0.895387299999925 ], [ 119.838608200000067, -0.895201 ], [ 119.838716600000112, -0.894991199999936 ], [ 119.83876250000003, -0.894899199999941 ], [ 119.838831800000094, -0.89459329999994 ], [ 119.838972600000034, -0.894317299999955 ], [ 119.83897520000005, -0.894316899999978 ], [ 119.839722, -0.894192799999928 ], [ 119.840305200000103, -0.894139 ], [ 119.840565600000104, -0.894119699999976 ], [ 119.841048500000056, -0.893971499999964 ], [ 119.841049400000088, -0.893971299999976 ], [ 119.841397700000016, -0.893884899999932 ], [ 119.84182890000011, -0.893821799999955 ], [ 119.841900800000076, -0.893811199999959 ], [ 119.841974900000082, -0.89380959999994 ], [ 119.84228870000004, -0.89380239999997 ], [ 119.843018800000095, -0.893753899999979 ], [ 119.843385300000023, -0.892958799999974 ], [ 119.843027600000028, -0.893747499999961 ], [ 119.844604600000025, -0.893755 ], [ 119.844604300000015, -0.893761799999936 ], [ 119.844577600000093, -0.894374299999924 ], [ 119.844577, -0.89440019999995 ], [ 119.844522900000015, -0.895169099999976 ], [ 119.84508, -0.895129499999939 ], [ 119.845517500000028, -0.895096499999966 ], [ 119.846630700000105, -0.895099399999935 ], [ 119.847170400000095, -0.895099 ], [ 119.847190100000034, -0.895079099999975 ], [ 119.847281200000111, -0.894987199999946 ] ] ] ] } }
]
}
