{
"type": "FeatureCollection",
"name": "sdss_result",
"crs": { "type": "name", "properties": { "name": "urn:ogc:def:crs:OGC:1.3:CRS84" } },
"features": [
{ "type": "Feature", "properties": { "confidence": 0.3124, "scene_id": "jawa_barat_20260329", "processed_at": null, "status": "active", "ADM4_EN": "Mariuk", "ADM4_PCODE": "ID3213171004", "ADM4_REF": null, "ADM4ALT1EN": null, "ADM4ALT2EN": null, "ADM3_EN": "Tambakdahan", "ADM3_PCODE": "ID3213171", "ADM2_EN": "Subang", "ADM2_PCODE": "ID3213", "ADM1_EN": "Jawa Barat", "ADM1_PCODE": "ID32", "ADM0_EN": "Indonesia", "ADM0_PCODE": "ID" }, "geometry": { "type": "Point", "coordinates": [ 107.8125, -6.328125 ] } },
{ "type": "Feature", "properties": { "confidence": 0.3773, "scene_id": "jawa_barat_20260329", "processed_at": null, "status": "active", "ADM4_EN": "Cilandak Lor", "ADM4_PCODE": "ID3212210012", "ADM4_REF": null, "ADM4ALT1EN": null, "ADM4ALT2EN": null, "ADM3_EN": "Anjatan", "ADM3_PCODE": "ID3212210", "ADM2_EN": "Indramayu", "ADM2_PCODE": "ID3212", "ADM1_EN": "Jawa Barat", "ADM1_PCODE": "ID32", "ADM0_EN": "Indonesia", "ADM0_PCODE": "ID" }, "geometry": { "type": "Point", "coordinates": [ 107.9375, -6.328125 ] } },
{ "type": "Feature", "properties": { "confidence": 0.2189, "scene_id": "idn_0n_100e_20260326", "status": "active", "ADM4_EN": null, "ADM4_PCODE": null, "ADM4_REF": null, "ADM4ALT1EN": null, "ADM4ALT2EN": null, "ADM3_EN": null, "ADM3_PCODE": null, "ADM2_EN": null, "ADM2_PCODE": null, "ADM1_EN": null, "ADM1_PCODE": null, "ADM0_EN": null, "ADM0_PCODE": null }, "geometry": { "type": "Point", "coordinates": [ 99.0625, -0.0625 ] } },
{ "type": "Feature", "properties": { "confidence": 0.3633, "scene_id": "idn_0n_100e_20260326", "status": "active", "ADM4_EN": null, "ADM4_PCODE": null, "ADM4_REF": null, "ADM4ALT1EN": null, "ADM4ALT2EN": null, "ADM3_EN": null, "ADM3_PCODE": null, "ADM2_EN": null, "ADM2_PCODE": null, "ADM1_EN": null, "ADM1_PCODE": null, "ADM0_EN": null, "ADM0_PCODE": null }, "geometry": { "type": "Point", "coordinates": [ 99.0625, -0.1875 ] } },
{ "type": "Feature", "properties": { "confidence": 0.2185, "scene_id": "idn_0n_124e_20260328", "status": "active", "ADM4_EN": null, "ADM4_PCODE": null, "ADM4_REF": null, "ADM4ALT1EN": null, "ADM4ALT2EN": null, "ADM3_EN": null, "ADM3_PCODE": null, "ADM2_EN": null, "ADM2_PCODE": null, "ADM1_EN": null, "ADM1_PCODE": null, "ADM0_EN": null, "ADM0_PCODE": null }, "geometry": { "type": "Point", "coordinates": [ 124.3125, -0.8125 ] } },
{ "type": "Feature", "properties": { "confidence": 0.3722, "scene_id": "idn_0n_124e_20260328", "status": "active", "ADM4_EN": null, "ADM4_PCODE": null, "ADM4_REF": null, "ADM4ALT1EN": null, "ADM4ALT2EN": null, "ADM3_EN": null, "ADM3_PCODE": null, "ADM2_EN": null, "ADM2_PCODE": null, "ADM1_EN": null, "ADM1_PCODE": null, "ADM0_EN": null, "ADM0_PCODE": null }, "geometry": { "type": "Point", "coordinates": [ 124.1875, -0.9375 ] } },
{ "type": "Feature", "properties": { "confidence": 0.2382, "scene_id": "idn_0n_124e_20260328", "status": "active", "ADM4_EN": null, "ADM4_PCODE": null, "ADM4_REF": null, "ADM4ALT1EN": null, "ADM4ALT2EN": null, "ADM3_EN": null, "ADM3_PCODE": null, "ADM2_EN": null, "ADM2_PCODE": null, "ADM1_EN": null, "ADM1_PCODE": null, "ADM0_EN": null, "ADM0_PCODE": null }, "geometry": { "type": "Point", "coordinates": [ 124.3125, -0.9375 ] } },
{ "type": "Feature", "properties": { "confidence": 0.3308, "scene_id": "idn_0n_98e_20260326", "status": "active", "ADM4_EN": null, "ADM4_PCODE": null, "ADM4_REF": null, "ADM4ALT1EN": null, "ADM4ALT2EN": null, "ADM3_EN": null, "ADM3_PCODE": null, "ADM2_EN": null, "ADM2_PCODE": null, "ADM1_EN": null, "ADM1_PCODE": null, "ADM0_EN": null, "ADM0_PCODE": null }, "geometry": { "type": "Point", "coordinates": [ 98.3125, -0.0625 ] } },
{ "type": "Feature", "properties": { "confidence": 0.2835, "scene_id": "idn_0n_98e_20260326", "status": "active", "ADM4_EN": "Wawa", "ADM4_PCODE": "ID1214024001", "ADM4_REF": null, "ADM4ALT1EN": null, "ADM4ALT2EN": null, "ADM3_EN": "Pulau-Pulau Batu Utara", "ADM3_PCODE": "ID1214024", "ADM2_EN": "Nias Selatan", "ADM2_PCODE": "ID1214", "ADM1_EN": "Sumatera Utara", "ADM1_PCODE": "ID12", "ADM0_EN": "Indonesia", "ADM0_PCODE": "ID" }, "geometry": { "type": "Point", "coordinates": [ 98.4375, -0.0625 ] } },
{ "type": "Feature", "properties": { "confidence": 0.2026, "scene_id": "idn_0n_98e_20260326", "status": "active", "ADM4_EN": null, "ADM4_PCODE": null, "ADM4_REF": null, "ADM4ALT1EN": null, "ADM4ALT2EN": null, "ADM3_EN": null, "ADM3_PCODE": null, "ADM2_EN": null, "ADM2_PCODE": null, "ADM1_EN": null, "ADM1_PCODE": null, "ADM0_EN": null, "ADM0_PCODE": null }, "geometry": { "type": "Point", "coordinates": [ 98.3125, -0.1875 ] } },
{ "type": "Feature", "properties": { "confidence": 0.3891, "scene_id": "idn_0n_98e_20260326", "status": "active", "ADM4_EN": "Bawo Orudua", "ADM4_PCODE": "ID1214011006", "ADM4_REF": null, "ADM4ALT1EN": null, "ADM4ALT2EN": null, "ADM3_EN": "Tanah Masa", "ADM3_PCODE": "ID1214011", "ADM2_EN": "Nias Selatan", "ADM2_PCODE": "ID1214", "ADM1_EN": "Sumatera Utara", "ADM1_PCODE": "ID12", "ADM0_EN": "Indonesia", "ADM0_PCODE": "ID" }, "geometry": { "type": "Point", "coordinates": [ 98.4375, -0.1875 ] } },
{ "type": "Feature", "properties": { "confidence": 0.2887, "scene_id": "idn_0n_98e_20260326", "status": "active", "ADM4_EN": "Sifauruasi", "ADM4_PCODE": "ID1214011003", "ADM4_REF": null, "ADM4ALT1EN": null, "ADM4ALT2EN": null, "ADM3_EN": "Tanah Masa", "ADM3_PCODE": "ID1214011", "ADM2_EN": "Nias Selatan", "ADM2_PCODE": "ID1214", "ADM1_EN": "Sumatera Utara", "ADM1_PCODE": "ID12", "ADM0_EN": "Indonesia", "ADM0_PCODE": "ID" }, "geometry": { "type": "Point", "coordinates": [ 98.4375, -0.3125 ] } },
{ "type": "Feature", "properties": { "confidence": 0.3827, "scene_id": "idn_0n_98e_20260326", "status": "active", "ADM4_EN": "Saeru Melayu", "ADM4_PCODE": "ID1214011004", "ADM4_REF": null, "ADM4ALT1EN": null, "ADM4ALT2EN": null, "ADM3_EN": "Tanah Masa", "ADM3_PCODE": "ID1214011", "ADM2_EN": "Nias Selatan", "ADM2_PCODE": "ID1214", "ADM1_EN": "Sumatera Utara", "ADM1_PCODE": "ID12", "ADM0_EN": "Indonesia", "ADM0_PCODE": "ID" }, "geometry": { "type": "Point", "coordinates": [ 98.5625, -0.3125 ] } },
{ "type": "Feature", "properties": { "confidence": 0.3364, "scene_id": "idn_0n_98e_20260326", "status": "active", "ADM4_EN": "Hilianombasela", "ADM4_PCODE": "ID1214010007", "ADM4_REF": null, "ADM4ALT1EN": null, "ADM4ALT2EN": null, "ADM3_EN": "Hibala", "ADM3_PCODE": "ID1214010", "ADM2_EN": "Nias Selatan", "ADM2_PCODE": "ID1214", "ADM1_EN": "Sumatera Utara", "ADM1_PCODE": "ID12", "ADM0_EN": "Indonesia", "ADM0_PCODE": "ID" }, "geometry": { "type": "Point", "coordinates": [ 98.4375, -0.4375 ] } },
{ "type": "Feature", "properties": { "confidence": 0.3503, "scene_id": "idn_0n_98e_20260326", "status": "active", "ADM4_EN": null, "ADM4_PCODE": null, "ADM4_REF": null, "ADM4ALT1EN": null, "ADM4ALT2EN": null, "ADM3_EN": null, "ADM3_PCODE": null, "ADM2_EN": null, "ADM2_PCODE": null, "ADM1_EN": null, "ADM1_PCODE": null, "ADM0_EN": null, "ADM0_PCODE": null }, "geometry": { "type": "Point", "coordinates": [ 98.5625, -0.4375 ] } },
{ "type": "Feature", "properties": { "confidence": 0.455, "scene_id": "idn_0n_98e_20260326", "status": "active", "ADM4_EN": null, "ADM4_PCODE": null, "ADM4_REF": null, "ADM4ALT1EN": null, "ADM4ALT2EN": null, "ADM3_EN": null, "ADM3_PCODE": null, "ADM2_EN": null, "ADM2_PCODE": null, "ADM1_EN": null, "ADM1_PCODE": null, "ADM0_EN": null, "ADM0_PCODE": null }, "geometry": { "type": "Point", "coordinates": [ 98.4375, -0.5625 ] } },
{ "type": "Feature", "properties": { "confidence": 0.285, "scene_id": "idn_0n_98e_20260326", "status": "active", "ADM4_EN": null, "ADM4_PCODE": null, "ADM4_REF": null, "ADM4ALT1EN": null, "ADM4ALT2EN": null, "ADM3_EN": null, "ADM3_PCODE": null, "ADM2_EN": null, "ADM2_PCODE": null, "ADM1_EN": null, "ADM1_PCODE": null, "ADM0_EN": null, "ADM0_PCODE": null }, "geometry": { "type": "Point", "coordinates": [ 98.5625, -0.5625 ] } },
{ "type": "Feature", "properties": { "confidence": 0.3685, "scene_id": "idn_0n_98e_20260326", "status": "active", "ADM4_EN": null, "ADM4_PCODE": null, "ADM4_REF": null, "ADM4ALT1EN": null, "ADM4ALT2EN": null, "ADM3_EN": null, "ADM3_PCODE": null, "ADM2_EN": null, "ADM2_PCODE": null, "ADM1_EN": null, "ADM1_PCODE": null, "ADM0_EN": null, "ADM0_PCODE": null }, "geometry": { "type": "Point", "coordinates": [ 98.8125, -0.5625 ] } },
{ "type": "Feature", "properties": { "confidence": 0.3662, "scene_id": "idn_0n_98e_20260326", "status": "active", "ADM4_EN": null, "ADM4_PCODE": null, "ADM4_REF": null, "ADM4ALT1EN": null, "ADM4ALT2EN": null, "ADM3_EN": null, "ADM3_PCODE": null, "ADM2_EN": null, "ADM2_PCODE": null, "ADM1_EN": null, "ADM1_PCODE": null, "ADM0_EN": null, "ADM0_PCODE": null }, "geometry": { "type": "Point", "coordinates": [ 98.9375, -0.5625 ] } },
{ "type": "Feature", "properties": { "confidence": 0.2599, "scene_id": "idn_0n_98e_20260326", "status": "active", "ADM4_EN": null, "ADM4_PCODE": null, "ADM4_REF": null, "ADM4ALT1EN": null, "ADM4ALT2EN": null, "ADM3_EN": null, "ADM3_PCODE": null, "ADM2_EN": null, "ADM2_PCODE": null, "ADM1_EN": null, "ADM1_PCODE": null, "ADM0_EN": null, "ADM0_PCODE": null }, "geometry": { "type": "Point", "coordinates": [ 98.5625, -0.6875 ] } },
{ "type": "Feature", "properties": { "confidence": 0.286, "scene_id": "idn_0n_98e_20260326", "status": "active", "ADM4_EN": null, "ADM4_PCODE": null, "ADM4_REF": null, "ADM4ALT1EN": null, "ADM4ALT2EN": null, "ADM3_EN": null, "ADM3_PCODE": null, "ADM2_EN": null, "ADM2_PCODE": null, "ADM1_EN": null, "ADM1_PCODE": null, "ADM0_EN": null, "ADM0_PCODE": null }, "geometry": { "type": "Point", "coordinates": [ 98.6875, -0.6875 ] } },
{ "type": "Feature", "properties": { "confidence": 0.4821, "scene_id": "idn_0n_98e_20260326", "status": "active", "ADM4_EN": null, "ADM4_PCODE": null, "ADM4_REF": null, "ADM4ALT1EN": null, "ADM4ALT2EN": null, "ADM3_EN": null, "ADM3_PCODE": null, "ADM2_EN": null, "ADM2_PCODE": null, "ADM1_EN": null, "ADM1_PCODE": null, "ADM0_EN": null, "ADM0_PCODE": null }, "geometry": { "type": "Point", "coordinates": [ 98.8125, -0.6875 ] } },
{ "type": "Feature", "properties": { "confidence": 0.3147, "scene_id": "idn_0n_98e_20260326", "status": "active", "ADM4_EN": null, "ADM4_PCODE": null, "ADM4_REF": null, "ADM4ALT1EN": null, "ADM4ALT2EN": null, "ADM3_EN": null, "ADM3_PCODE": null, "ADM2_EN": null, "ADM2_PCODE": null, "ADM1_EN": null, "ADM1_PCODE": null, "ADM0_EN": null, "ADM0_PCODE": null }, "geometry": { "type": "Point", "coordinates": [ 98.9375, -0.6875 ] } },
{ "type": "Feature", "properties": { "confidence": 0.3253, "scene_id": "idn_0n_98e_20260326", "status": "active", "ADM4_EN": null, "ADM4_PCODE": null, "ADM4_REF": null, "ADM4ALT1EN": null, "ADM4ALT2EN": null, "ADM3_EN": null, "ADM3_PCODE": null, "ADM2_EN": null, "ADM2_PCODE": null, "ADM1_EN": null, "ADM1_PCODE": null, "ADM0_EN": null, "ADM0_PCODE": null }, "geometry": { "type": "Point", "coordinates": [ 98.6875, -0.8125 ] } },
{ "type": "Feature", "properties": { "confidence": 0.2523, "scene_id": "idn_0n_98e_20260326", "status": "active", "ADM4_EN": null, "ADM4_PCODE": null, "ADM4_REF": null, "ADM4ALT1EN": null, "ADM4ALT2EN": null, "ADM3_EN": null, "ADM3_PCODE": null, "ADM2_EN": null, "ADM2_PCODE": null, "ADM1_EN": null, "ADM1_PCODE": null, "ADM0_EN": null, "ADM0_PCODE": null }, "geometry": { "type": "Point", "coordinates": [ 98.8125, -0.8125 ] } },
{ "type": "Feature", "properties": { "confidence": 0.3586, "scene_id": "idn_0n_98e_20260326", "status": "active", "ADM4_EN": null, "ADM4_PCODE": null, "ADM4_REF": null, "ADM4ALT1EN": null, "ADM4ALT2EN": null, "ADM3_EN": null, "ADM3_PCODE": null, "ADM2_EN": null, "ADM2_PCODE": null, "ADM1_EN": null, "ADM1_PCODE": null, "ADM0_EN": null, "ADM0_PCODE": null }, "geometry": { "type": "Point", "coordinates": [ 98.9375, -0.8125 ] } },
{ "type": "Feature", "properties": { "confidence": 0.428, "scene_id": "idn_0n_98e_20260326", "status": "active", "ADM4_EN": null, "ADM4_PCODE": null, "ADM4_REF": null, "ADM4ALT1EN": null, "ADM4ALT2EN": null, "ADM3_EN": null, "ADM3_PCODE": null, "ADM2_EN": null, "ADM2_PCODE": null, "ADM1_EN": null, "ADM1_PCODE": null, "ADM0_EN": null, "ADM0_PCODE": null }, "geometry": { "type": "Point", "coordinates": [ 98.3125, -0.9375 ] } },
{ "type": "Feature", "properties": { "confidence": 0.2562, "scene_id": "idn_0n_98e_20260326", "status": "active", "ADM4_EN": null, "ADM4_PCODE": null, "ADM4_REF": null, "ADM4ALT1EN": null, "ADM4ALT2EN": null, "ADM3_EN": null, "ADM3_PCODE": null, "ADM2_EN": null, "ADM2_PCODE": null, "ADM1_EN": null, "ADM1_PCODE": null, "ADM0_EN": null, "ADM0_PCODE": null }, "geometry": { "type": "Point", "coordinates": [ 98.4375, -0.9375 ] } },
{ "type": "Feature", "properties": { "confidence": 0.3381, "scene_id": "idn_0n_98e_20260326", "status": "active", "ADM4_EN": null, "ADM4_PCODE": null, "ADM4_REF": null, "ADM4ALT1EN": null, "ADM4ALT2EN": null, "ADM3_EN": null, "ADM3_PCODE": null, "ADM2_EN": null, "ADM2_PCODE": null, "ADM1_EN": null, "ADM1_PCODE": null, "ADM0_EN": null, "ADM0_PCODE": null }, "geometry": { "type": "Point", "coordinates": [ 98.5625, -0.9375 ] } },
{ "type": "Feature", "properties": { "confidence": 0.2915, "scene_id": "idn_0n_98e_20260326", "status": "active", "ADM4_EN": null, "ADM4_PCODE": null, "ADM4_REF": null, "ADM4ALT1EN": null, "ADM4ALT2EN": null, "ADM3_EN": null, "ADM3_PCODE": null, "ADM2_EN": null, "ADM2_PCODE": null, "ADM1_EN": null, "ADM1_PCODE": null, "ADM0_EN": null, "ADM0_PCODE": null }, "geometry": { "type": "Point", "coordinates": [ 98.6875, -0.9375 ] } },
{ "type": "Feature", "properties": { "confidence": 0.2563, "scene_id": "idn_2n_100e_20260326", "status": "active", "ADM4_EN": "Batu Horing", "ADM4_PCODE": "ID1203100063", "ADM4_REF": null, "ADM4ALT1EN": null, "ADM4ALT2EN": null, "ADM3_EN": "Batang Toru", "ADM3_PCODE": "ID1203100", "ADM2_EN": "Tapanuli Selatan", "ADM2_PCODE": "ID1203", "ADM1_EN": "Sumatera Utara", "ADM1_PCODE": "ID12", "ADM0_EN": "Indonesia", "ADM0_PCODE": "ID" }, "geometry": { "type": "Point", "coordinates": [ 99.0625, 1.6875 ] } },
{ "type": "Feature", "properties": { "confidence": 0.2635, "scene_id": "idn_2n_100e_20260326", "status": "active", "ADM4_EN": "Batu Horing", "ADM4_PCODE": "ID1203100063", "ADM4_REF": null, "ADM4ALT1EN": null, "ADM4ALT2EN": null, "ADM3_EN": "Batang Toru", "ADM3_PCODE": "ID1203100", "ADM2_EN": "Tapanuli Selatan", "ADM2_PCODE": "ID1203", "ADM1_EN": "Sumatera Utara", "ADM1_PCODE": "ID12", "ADM0_EN": "Indonesia", "ADM0_PCODE": "ID" }, "geometry": { "type": "Point", "coordinates": [ 99.0625, 1.5625 ] } },
{ "type": "Feature", "properties": { "confidence": 0.2201, "scene_id": "idn_2n_100e_20260326", "status": "active", "ADM4_EN": "Kelurahan Pardomuan", "ADM4_PCODE": "ID1203080001", "ADM4_REF": null, "ADM4ALT1EN": null, "ADM4ALT2EN": null, "ADM3_EN": "Angkola Selatan", "ADM3_PCODE": "ID1203080", "ADM2_EN": "Tapanuli Selatan", "ADM2_PCODE": "ID1203", "ADM1_EN": "Sumatera Utara", "ADM1_PCODE": "ID12", "ADM0_EN": "Indonesia", "ADM0_PCODE": "ID" }, "geometry": { "type": "Point", "coordinates": [ 99.0625, 1.3125 ] } },
{ "type": "Feature", "properties": { "confidence": 0.3419, "scene_id": "idn_2s_116e_20260327", "status": "active", "ADM4_EN": "Sang Sang", "ADM4_PCODE": "ID6302160012", "ADM4_REF": null, "ADM4ALT1EN": null, "ADM4ALT2EN": null, "ADM3_EN": "Kelumpang Tengah", "ADM3_PCODE": "ID6302160", "ADM2_EN": "Kota Baru", "ADM2_PCODE": "ID6302", "ADM1_EN": "Kalimantan Selatan", "ADM1_PCODE": "ID63", "ADM0_EN": "Indonesia", "ADM0_PCODE": "ID" }, "geometry": { "type": "Point", "coordinates": [ 116.1875, -2.8125 ] } },
{ "type": "Feature", "properties": { "confidence": 0.2458, "scene_id": "idn_2s_116e_20260327", "status": "active", "ADM4_EN": "Wilas", "ADM4_PCODE": "ID6302170007", "ADM4_REF": null, "ADM4ALT1EN": null, "ADM4ALT2EN": null, "ADM3_EN": "Kelumpang Utara", "ADM3_PCODE": "ID6302170", "ADM2_EN": "Kota Baru", "ADM2_PCODE": "ID6302", "ADM1_EN": "Kalimantan Selatan", "ADM1_PCODE": "ID63", "ADM0_EN": "Indonesia", "ADM0_PCODE": "ID" }, "geometry": { "type": "Point", "coordinates": [ 116.3125, -2.8125 ] } },
{ "type": "Feature", "properties": { "confidence": 0.2019, "scene_id": "idn_2s_116e_20260327", "status": "active", "ADM4_EN": null, "ADM4_PCODE": null, "ADM4_REF": null, "ADM4ALT1EN": null, "ADM4ALT2EN": null, "ADM3_EN": null, "ADM3_PCODE": null, "ADM2_EN": null, "ADM2_PCODE": null, "ADM1_EN": null, "ADM1_PCODE": null, "ADM0_EN": null, "ADM0_PCODE": null }, "geometry": { "type": "Point", "coordinates": [ 116.5625, -2.8125 ] } },
{ "type": "Feature", "properties": { "confidence": 0.3968, "scene_id": "idn_2s_116e_20260327", "status": "active", "ADM4_EN": "Sembilang", "ADM4_PCODE": "ID6302160009", "ADM4_REF": null, "ADM4ALT1EN": null, "ADM4ALT2EN": null, "ADM3_EN": "Kelumpang Tengah", "ADM3_PCODE": "ID6302160", "ADM2_EN": "Kota Baru", "ADM2_PCODE": "ID6302", "ADM1_EN": "Kalimantan Selatan", "ADM1_PCODE": "ID63", "ADM0_EN": "Indonesia", "ADM0_PCODE": "ID" }, "geometry": { "type": "Point", "coordinates": [ 116.1875, -2.9375 ] } },
{ "type": "Feature", "properties": { "confidence": 0.2837, "scene_id": "idn_2s_116e_20260327", "status": "active", "ADM4_EN": "Sungai Hanyar", "ADM4_PCODE": "ID6302170001", "ADM4_REF": null, "ADM4ALT1EN": null, "ADM4ALT2EN": null, "ADM3_EN": "Kelumpang Utara", "ADM3_PCODE": "ID6302170", "ADM2_EN": "Kota Baru", "ADM2_PCODE": "ID6302", "ADM1_EN": "Kalimantan Selatan", "ADM1_PCODE": "ID63", "ADM0_EN": "Indonesia", "ADM0_PCODE": "ID" }, "geometry": { "type": "Point", "coordinates": [ 116.3125, -2.9375 ] } },
{ "type": "Feature", "properties": { "confidence": 0.2111, "scene_id": "idn_2s_116e_20260327", "status": "active", "ADM4_EN": null, "ADM4_PCODE": null, "ADM4_REF": null, "ADM4ALT1EN": null, "ADM4ALT2EN": null, "ADM3_EN": null, "ADM3_PCODE": null, "ADM2_EN": null, "ADM2_PCODE": null, "ADM1_EN": null, "ADM1_PCODE": null, "ADM0_EN": null, "ADM0_PCODE": null }, "geometry": { "type": "Point", "coordinates": [ 116.4375, -2.9375 ] } },
{ "type": "Feature", "properties": { "confidence": 0.341, "scene_id": "idn_2s_130e_20260325", "status": "active", "ADM4_EN": null, "ADM4_PCODE": null, "ADM4_REF": null, "ADM4ALT1EN": null, "ADM4ALT2EN": null, "ADM3_EN": null, "ADM3_PCODE": null, "ADM2_EN": null, "ADM2_PCODE": null, "ADM1_EN": null, "ADM1_PCODE": null, "ADM0_EN": null, "ADM0_PCODE": null }, "geometry": { "type": "Point", "coordinates": [ 129.0625, -1.0625 ] } },
{ "type": "Feature", "properties": { "confidence": 0.4047, "scene_id": "idn_2s_130e_20260325", "status": "active", "ADM4_EN": null, "ADM4_PCODE": null, "ADM4_REF": null, "ADM4ALT1EN": null, "ADM4ALT2EN": null, "ADM3_EN": null, "ADM3_PCODE": null, "ADM2_EN": null, "ADM2_PCODE": null, "ADM1_EN": null, "ADM1_PCODE": null, "ADM0_EN": null, "ADM0_PCODE": null }, "geometry": { "type": "Point", "coordinates": [ 129.0625, -1.1875 ] } },
{ "type": "Feature", "properties": { "confidence": 0.2937, "scene_id": "idn_2s_130e_20260325", "status": "active", "ADM4_EN": null, "ADM4_PCODE": null, "ADM4_REF": null, "ADM4ALT1EN": null, "ADM4ALT2EN": null, "ADM3_EN": null, "ADM3_PCODE": null, "ADM2_EN": null, "ADM2_PCODE": null, "ADM1_EN": null, "ADM1_PCODE": null, "ADM0_EN": null, "ADM0_PCODE": null }, "geometry": { "type": "Point", "coordinates": [ 129.1875, -1.1875 ] } },
{ "type": "Feature", "properties": { "confidence": 0.4517, "scene_id": "idn_2s_130e_20260325", "status": "active", "ADM4_EN": null, "ADM4_PCODE": null, "ADM4_REF": null, "ADM4ALT1EN": null, "ADM4ALT2EN": null, "ADM3_EN": null, "ADM3_PCODE": null, "ADM2_EN": null, "ADM2_PCODE": null, "ADM1_EN": null, "ADM1_PCODE": null, "ADM0_EN": null, "ADM0_PCODE": null }, "geometry": { "type": "Point", "coordinates": [ 129.0625, -1.3125 ] } },
{ "type": "Feature", "properties": { "confidence": 0.3059, "scene_id": "idn_2s_130e_20260325", "status": "active", "ADM4_EN": null, "ADM4_PCODE": null, "ADM4_REF": null, "ADM4ALT1EN": null, "ADM4ALT2EN": null, "ADM3_EN": null, "ADM3_PCODE": null, "ADM2_EN": null, "ADM2_PCODE": null, "ADM1_EN": null, "ADM1_PCODE": null, "ADM0_EN": null, "ADM0_PCODE": null }, "geometry": { "type": "Point", "coordinates": [ 129.1875, -1.3125 ] } },
{ "type": "Feature", "properties": { "confidence": 0.2959, "scene_id": "idn_2s_130e_20260325", "status": "active", "ADM4_EN": null, "ADM4_PCODE": null, "ADM4_REF": null, "ADM4ALT1EN": null, "ADM4ALT2EN": null, "ADM3_EN": null, "ADM3_PCODE": null, "ADM2_EN": null, "ADM2_PCODE": null, "ADM1_EN": null, "ADM1_PCODE": null, "ADM0_EN": null, "ADM0_PCODE": null }, "geometry": { "type": "Point", "coordinates": [ 129.0625, -1.4375 ] } },
{ "type": "Feature", "properties": { "confidence": 0.421, "scene_id": "idn_2s_130e_20260325", "status": "active", "ADM4_EN": null, "ADM4_PCODE": null, "ADM4_REF": null, "ADM4ALT1EN": null, "ADM4ALT2EN": null, "ADM3_EN": null, "ADM3_PCODE": null, "ADM2_EN": null, "ADM2_PCODE": null, "ADM1_EN": null, "ADM1_PCODE": null, "ADM0_EN": null, "ADM0_PCODE": null }, "geometry": { "type": "Point", "coordinates": [ 129.0625, -1.5625 ] } },
{ "type": "Feature", "properties": { "confidence": 0.35, "scene_id": "idn_2s_130e_20260325", "status": "active", "ADM4_EN": null, "ADM4_PCODE": null, "ADM4_REF": null, "ADM4ALT1EN": null, "ADM4ALT2EN": null, "ADM3_EN": null, "ADM3_PCODE": null, "ADM2_EN": null, "ADM2_PCODE": null, "ADM1_EN": null, "ADM1_PCODE": null, "ADM0_EN": null, "ADM0_PCODE": null }, "geometry": { "type": "Point", "coordinates": [ 129.0625, -1.6875 ] } },
{ "type": "Feature", "properties": { "confidence": 0.2297, "scene_id": "idn_2s_130e_20260325", "status": "active", "ADM4_EN": null, "ADM4_PCODE": null, "ADM4_REF": null, "ADM4ALT1EN": null, "ADM4ALT2EN": null, "ADM3_EN": null, "ADM3_PCODE": null, "ADM2_EN": null, "ADM2_PCODE": null, "ADM1_EN": null, "ADM1_PCODE": null, "ADM0_EN": null, "ADM0_PCODE": null }, "geometry": { "type": "Point", "coordinates": [ 129.0625, -1.8125 ] } },
{ "type": "Feature", "properties": { "confidence": 0.3727, "scene_id": "idn_4n_100e_20260326", "status": "active", "ADM4_EN": null, "ADM4_PCODE": null, "ADM4_REF": null, "ADM4ALT1EN": null, "ADM4ALT2EN": null, "ADM3_EN": null, "ADM3_PCODE": null, "ADM2_EN": null, "ADM2_PCODE": null, "ADM1_EN": null, "ADM1_PCODE": null, "ADM0_EN": null, "ADM0_PCODE": null }, "geometry": { "type": "Point", "coordinates": [ 99.1875, 4.9375 ] } },
{ "type": "Feature", "properties": { "confidence": 0.3959, "scene_id": "idn_4n_100e_20260326", "status": "active", "ADM4_EN": null, "ADM4_PCODE": null, "ADM4_REF": null, "ADM4ALT1EN": null, "ADM4ALT2EN": null, "ADM3_EN": null, "ADM3_PCODE": null, "ADM2_EN": null, "ADM2_PCODE": null, "ADM1_EN": null, "ADM1_PCODE": null, "ADM0_EN": null, "ADM0_PCODE": null }, "geometry": { "type": "Point", "coordinates": [ 99.3125, 4.9375 ] } },
{ "type": "Feature", "properties": { "confidence": 0.3346, "scene_id": "idn_4n_100e_20260326", "status": "active", "ADM4_EN": null, "ADM4_PCODE": null, "ADM4_REF": null, "ADM4ALT1EN": null, "ADM4ALT2EN": null, "ADM3_EN": null, "ADM3_PCODE": null, "ADM2_EN": null, "ADM2_PCODE": null, "ADM1_EN": null, "ADM1_PCODE": null, "ADM0_EN": null, "ADM0_PCODE": null }, "geometry": { "type": "Point", "coordinates": [ 99.4375, 4.9375 ] } },
{ "type": "Feature", "properties": { "confidence": 0.2218, "scene_id": "idn_4n_100e_20260326", "status": "active", "ADM4_EN": null, "ADM4_PCODE": null, "ADM4_REF": null, "ADM4ALT1EN": null, "ADM4ALT2EN": null, "ADM3_EN": null, "ADM3_PCODE": null, "ADM2_EN": null, "ADM2_PCODE": null, "ADM1_EN": null, "ADM1_PCODE": null, "ADM0_EN": null, "ADM0_PCODE": null }, "geometry": { "type": "Point", "coordinates": [ 99.8125, 4.9375 ] } },
{ "type": "Feature", "properties": { "confidence": 0.2125, "scene_id": "idn_4n_100e_20260326", "status": "active", "ADM4_EN": null, "ADM4_PCODE": null, "ADM4_REF": null, "ADM4ALT1EN": null, "ADM4ALT2EN": null, "ADM3_EN": null, "ADM3_PCODE": null, "ADM2_EN": null, "ADM2_PCODE": null, "ADM1_EN": null, "ADM1_PCODE": null, "ADM0_EN": null, "ADM0_PCODE": null }, "geometry": { "type": "Point", "coordinates": [ 99.9375, 4.9375 ] } },
{ "type": "Feature", "properties": { "confidence": 0.2215, "scene_id": "idn_4n_100e_20260326", "status": "active", "ADM4_EN": null, "ADM4_PCODE": null, "ADM4_REF": null, "ADM4ALT1EN": null, "ADM4ALT2EN": null, "ADM3_EN": null, "ADM3_PCODE": null, "ADM2_EN": null, "ADM2_PCODE": null, "ADM1_EN": null, "ADM1_PCODE": null, "ADM0_EN": null, "ADM0_PCODE": null }, "geometry": { "type": "Point", "coordinates": [ 99.0625, 4.8125 ] } },
{ "type": "Feature", "properties": { "confidence": 0.2633, "scene_id": "idn_4n_100e_20260326", "status": "active", "ADM4_EN": null, "ADM4_PCODE": null, "ADM4_REF": null, "ADM4ALT1EN": null, "ADM4ALT2EN": null, "ADM3_EN": null, "ADM3_PCODE": null, "ADM2_EN": null, "ADM2_PCODE": null, "ADM1_EN": null, "ADM1_PCODE": null, "ADM0_EN": null, "ADM0_PCODE": null }, "geometry": { "type": "Point", "coordinates": [ 99.1875, 4.8125 ] } },
{ "type": "Feature", "properties": { "confidence": 0.2561, "scene_id": "idn_4n_100e_20260326", "status": "active", "ADM4_EN": null, "ADM4_PCODE": null, "ADM4_REF": null, "ADM4ALT1EN": null, "ADM4ALT2EN": null, "ADM3_EN": null, "ADM3_PCODE": null, "ADM2_EN": null, "ADM2_PCODE": null, "ADM1_EN": null, "ADM1_PCODE": null, "ADM0_EN": null, "ADM0_PCODE": null }, "geometry": { "type": "Point", "coordinates": [ 99.3125, 4.8125 ] } },
{ "type": "Feature", "properties": { "confidence": 0.3992, "scene_id": "idn_4n_100e_20260326", "status": "active", "ADM4_EN": null, "ADM4_PCODE": null, "ADM4_REF": null, "ADM4ALT1EN": null, "ADM4ALT2EN": null, "ADM3_EN": null, "ADM3_PCODE": null, "ADM2_EN": null, "ADM2_PCODE": null, "ADM1_EN": null, "ADM1_PCODE": null, "ADM0_EN": null, "ADM0_PCODE": null }, "geometry": { "type": "Point", "coordinates": [ 99.4375, 4.8125 ] } },
{ "type": "Feature", "properties": { "confidence": 0.2781, "scene_id": "idn_4n_100e_20260326", "status": "active", "ADM4_EN": null, "ADM4_PCODE": null, "ADM4_REF": null, "ADM4ALT1EN": null, "ADM4ALT2EN": null, "ADM3_EN": null, "ADM3_PCODE": null, "ADM2_EN": null, "ADM2_PCODE": null, "ADM1_EN": null, "ADM1_PCODE": null, "ADM0_EN": null, "ADM0_PCODE": null }, "geometry": { "type": "Point", "coordinates": [ 99.8125, 4.8125 ] } },
{ "type": "Feature", "properties": { "confidence": 0.2478, "scene_id": "idn_4n_100e_20260326", "status": "active", "ADM4_EN": null, "ADM4_PCODE": null, "ADM4_REF": null, "ADM4ALT1EN": null, "ADM4ALT2EN": null, "ADM3_EN": null, "ADM3_PCODE": null, "ADM2_EN": null, "ADM2_PCODE": null, "ADM1_EN": null, "ADM1_PCODE": null, "ADM0_EN": null, "ADM0_PCODE": null }, "geometry": { "type": "Point", "coordinates": [ 99.1875, 4.6875 ] } },
{ "type": "Feature", "properties": { "confidence": 0.2555, "scene_id": "idn_4n_100e_20260326", "status": "active", "ADM4_EN": null, "ADM4_PCODE": null, "ADM4_REF": null, "ADM4ALT1EN": null, "ADM4ALT2EN": null, "ADM3_EN": null, "ADM3_PCODE": null, "ADM2_EN": null, "ADM2_PCODE": null, "ADM1_EN": null, "ADM1_PCODE": null, "ADM0_EN": null, "ADM0_PCODE": null }, "geometry": { "type": "Point", "coordinates": [ 99.6875, 4.6875 ] } },
{ "type": "Feature", "properties": { "confidence": 0.2259, "scene_id": "idn_4n_100e_20260326", "status": "active", "ADM4_EN": null, "ADM4_PCODE": null, "ADM4_REF": null, "ADM4ALT1EN": null, "ADM4ALT2EN": null, "ADM3_EN": null, "ADM3_PCODE": null, "ADM2_EN": null, "ADM2_PCODE": null, "ADM1_EN": null, "ADM1_PCODE": null, "ADM0_EN": null, "ADM0_PCODE": null }, "geometry": { "type": "Point", "coordinates": [ 99.1875, 4.5625 ] } },
{ "type": "Feature", "properties": { "confidence": 0.2454, "scene_id": "idn_4n_100e_20260326", "status": "active", "ADM4_EN": null, "ADM4_PCODE": null, "ADM4_REF": null, "ADM4ALT1EN": null, "ADM4ALT2EN": null, "ADM3_EN": null, "ADM3_PCODE": null, "ADM2_EN": null, "ADM2_PCODE": null, "ADM1_EN": null, "ADM1_PCODE": null, "ADM0_EN": null, "ADM0_PCODE": null }, "geometry": { "type": "Point", "coordinates": [ 99.6875, 4.5625 ] } },
{ "type": "Feature", "properties": { "confidence": 0.3413, "scene_id": "idn_4s_108e_20260329", "status": "active", "ADM4_EN": null, "ADM4_PCODE": null, "ADM4_REF": null, "ADM4ALT1EN": null, "ADM4ALT2EN": null, "ADM3_EN": null, "ADM3_PCODE": null, "ADM2_EN": null, "ADM2_PCODE": null, "ADM1_EN": null, "ADM1_PCODE": null, "ADM0_EN": null, "ADM0_PCODE": null }, "geometry": { "type": "Point", "coordinates": [ 107.1875, -3.6875 ] } },
{ "type": "Feature", "properties": { "confidence": 0.2766, "scene_id": "idn_4s_108e_20260329", "status": "active", "ADM4_EN": null, "ADM4_PCODE": null, "ADM4_REF": null, "ADM4ALT1EN": null, "ADM4ALT2EN": null, "ADM3_EN": null, "ADM3_PCODE": null, "ADM2_EN": null, "ADM2_PCODE": null, "ADM1_EN": null, "ADM1_PCODE": null, "ADM0_EN": null, "ADM0_PCODE": null }, "geometry": { "type": "Point", "coordinates": [ 107.3125, -3.6875 ] } },
{ "type": "Feature", "properties": { "confidence": 0.3299, "scene_id": "idn_6n_100e_20260323", "status": "active", "ADM4_EN": null, "ADM4_PCODE": null, "ADM4_REF": null, "ADM4ALT1EN": null, "ADM4ALT2EN": null, "ADM3_EN": null, "ADM3_PCODE": null, "ADM2_EN": null, "ADM2_PCODE": null, "ADM1_EN": null, "ADM1_PCODE": null, "ADM0_EN": null, "ADM0_PCODE": null }, "geometry": { "type": "Point", "coordinates": [ 100.8125, 5.46875 ] } },
{ "type": "Feature", "properties": { "confidence": 0.2408, "scene_id": "idn_6n_100e_20260323", "status": "active", "ADM4_EN": null, "ADM4_PCODE": null, "ADM4_REF": null, "ADM4ALT1EN": null, "ADM4ALT2EN": null, "ADM3_EN": null, "ADM3_PCODE": null, "ADM2_EN": null, "ADM2_PCODE": null, "ADM1_EN": null, "ADM1_PCODE": null, "ADM0_EN": null, "ADM0_PCODE": null }, "geometry": { "type": "Point", "coordinates": [ 100.8125, 5.40625 ] } },
{ "type": "Feature", "properties": { "confidence": 0.2537, "scene_id": "idn_6n_102e_20260323", "status": "active", "ADM4_EN": null, "ADM4_PCODE": null, "ADM4_REF": null, "ADM4ALT1EN": null, "ADM4ALT2EN": null, "ADM3_EN": null, "ADM3_PCODE": null, "ADM2_EN": null, "ADM2_PCODE": null, "ADM1_EN": null, "ADM1_PCODE": null, "ADM0_EN": null, "ADM0_PCODE": null }, "geometry": { "type": "Point", "coordinates": [ 101.6875, 5.96875 ] } },
{ "type": "Feature", "properties": { "confidence": 0.307, "scene_id": "idn_6n_102e_20260323", "status": "active", "ADM4_EN": null, "ADM4_PCODE": null, "ADM4_REF": null, "ADM4ALT1EN": null, "ADM4ALT2EN": null, "ADM3_EN": null, "ADM3_PCODE": null, "ADM2_EN": null, "ADM2_PCODE": null, "ADM1_EN": null, "ADM1_PCODE": null, "ADM0_EN": null, "ADM0_PCODE": null }, "geometry": { "type": "Point", "coordinates": [ 101.5625, 5.90625 ] } },
{ "type": "Feature", "properties": { "confidence": 0.2962, "scene_id": "idn_6n_102e_20260323", "status": "active", "ADM4_EN": null, "ADM4_PCODE": null, "ADM4_REF": null, "ADM4ALT1EN": null, "ADM4ALT2EN": null, "ADM3_EN": null, "ADM3_PCODE": null, "ADM2_EN": null, "ADM2_PCODE": null, "ADM1_EN": null, "ADM1_PCODE": null, "ADM0_EN": null, "ADM0_PCODE": null }, "geometry": { "type": "Point", "coordinates": [ 101.6875, 5.90625 ] } },
{ "type": "Feature", "properties": { "confidence": 0.3799, "scene_id": "idn_6n_102e_20260323", "status": "active", "ADM4_EN": null, "ADM4_PCODE": null, "ADM4_REF": null, "ADM4ALT1EN": null, "ADM4ALT2EN": null, "ADM3_EN": null, "ADM3_PCODE": null, "ADM2_EN": null, "ADM2_PCODE": null, "ADM1_EN": null, "ADM1_PCODE": null, "ADM0_EN": null, "ADM0_PCODE": null }, "geometry": { "type": "Point", "coordinates": [ 101.6875, 5.84375 ] } },
{ "type": "Feature", "properties": { "confidence": 0.3115, "scene_id": "idn_6n_102e_20260323", "status": "active", "ADM4_EN": null, "ADM4_PCODE": null, "ADM4_REF": null, "ADM4ALT1EN": null, "ADM4ALT2EN": null, "ADM3_EN": null, "ADM3_PCODE": null, "ADM2_EN": null, "ADM2_PCODE": null, "ADM1_EN": null, "ADM1_PCODE": null, "ADM0_EN": null, "ADM0_PCODE": null }, "geometry": { "type": "Point", "coordinates": [ 101.6875, 5.78125 ] } },
{ "type": "Feature", "properties": { "confidence": 0.297, "scene_id": "idn_6n_102e_20260323", "status": "active", "ADM4_EN": null, "ADM4_PCODE": null, "ADM4_REF": null, "ADM4ALT1EN": null, "ADM4ALT2EN": null, "ADM3_EN": null, "ADM3_PCODE": null, "ADM2_EN": null, "ADM2_PCODE": null, "ADM1_EN": null, "ADM1_PCODE": null, "ADM0_EN": null, "ADM0_PCODE": null }, "geometry": { "type": "Point", "coordinates": [ 101.6875, 5.71875 ] } },
{ "type": "Feature", "properties": { "confidence": 0.3152, "scene_id": "idn_6n_102e_20260323", "status": "active", "ADM4_EN": null, "ADM4_PCODE": null, "ADM4_REF": null, "ADM4ALT1EN": null, "ADM4ALT2EN": null, "ADM3_EN": null, "ADM3_PCODE": null, "ADM2_EN": null, "ADM2_PCODE": null, "ADM1_EN": null, "ADM1_PCODE": null, "ADM0_EN": null, "ADM0_PCODE": null }, "geometry": { "type": "Point", "coordinates": [ 101.6875, 5.46875 ] } },
{ "type": "Feature", "properties": { "confidence": 0.2853, "scene_id": "idn_6n_102e_20260323", "status": "active", "ADM4_EN": null, "ADM4_PCODE": null, "ADM4_REF": null, "ADM4ALT1EN": null, "ADM4ALT2EN": null, "ADM3_EN": null, "ADM3_PCODE": null, "ADM2_EN": null, "ADM2_PCODE": null, "ADM1_EN": null, "ADM1_PCODE": null, "ADM0_EN": null, "ADM0_PCODE": null }, "geometry": { "type": "Point", "coordinates": [ 101.6875, 5.40625 ] } },
{ "type": "Feature", "properties": { "confidence": 0.2667, "scene_id": "idn_6n_102e_20260323", "status": "active", "ADM4_EN": null, "ADM4_PCODE": null, "ADM4_REF": null, "ADM4ALT1EN": null, "ADM4ALT2EN": null, "ADM3_EN": null, "ADM3_PCODE": null, "ADM2_EN": null, "ADM2_PCODE": null, "ADM1_EN": null, "ADM1_PCODE": null, "ADM0_EN": null, "ADM0_PCODE": null }, "geometry": { "type": "Point", "coordinates": [ 101.6875, 5.34375 ] } },
{ "type": "Feature", "properties": { "confidence": 0.2924, "scene_id": "idn_6s_108e_20260329", "status": "active", "ADM4_EN": "Mariuk", "ADM4_PCODE": "ID3213171004", "ADM4_REF": null, "ADM4ALT1EN": null, "ADM4ALT2EN": null, "ADM3_EN": "Tambakdahan", "ADM3_PCODE": "ID3213171", "ADM2_EN": "Subang", "ADM2_PCODE": "ID3213", "ADM1_EN": "Jawa Barat", "ADM1_PCODE": "ID32", "ADM0_EN": "Indonesia", "ADM0_PCODE": "ID" }, "geometry": { "type": "Point", "coordinates": [ 107.8125, -6.3125 ] } },
{ "type": "Feature", "properties": { "confidence": 0.3602, "scene_id": "idn_6s_108e_20260329", "status": "active", "ADM4_EN": "Sukrawetan", "ADM4_PCODE": "ID3212220005", "ADM4_REF": null, "ADM4ALT1EN": null, "ADM4ALT2EN": null, "ADM3_EN": "Sukra", "ADM3_PCODE": "ID3212220", "ADM2_EN": "Indramayu", "ADM2_PCODE": "ID3212", "ADM1_EN": "Jawa Barat", "ADM1_PCODE": "ID32", "ADM0_EN": "Indonesia", "ADM0_PCODE": "ID" }, "geometry": { "type": "Point", "coordinates": [ 107.9375, -6.3125 ] } },
{ "type": "Feature", "properties": { "confidence": 0.2333, "scene_id": "idn_8s_108e_20260329", "status": "active", "ADM4_EN": "Sukabungah", "ADM4_PCODE": "ID3203111003", "ADM4_REF": null, "ADM4ALT1EN": null, "ADM4ALT2EN": null, "ADM3_EN": "Campaka Mulya", "ADM3_PCODE": "ID3203111", "ADM2_EN": "Cianjur", "ADM2_PCODE": "ID3203", "ADM1_EN": "Jawa Barat", "ADM1_PCODE": "ID32", "ADM0_EN": "Indonesia", "ADM0_PCODE": "ID" }, "geometry": { "type": "Point", "coordinates": [ 107.1875, -7.0625 ] } },
{ "type": "Feature", "properties": { "confidence": 0.3252, "scene_id": "idn_8s_108e_20260329", "status": "active", "ADM4_EN": "Gununghalu", "ADM4_PCODE": "ID3217020005", "ADM4_REF": null, "ADM4ALT1EN": null, "ADM4ALT2EN": null, "ADM3_EN": "Gununghalu", "ADM3_PCODE": "ID3217020", "ADM2_EN": "Bandung Barat", "ADM2_PCODE": "ID3217", "ADM1_EN": "Jawa Barat", "ADM1_PCODE": "ID32", "ADM0_EN": "Indonesia", "ADM0_PCODE": "ID" }, "geometry": { "type": "Point", "coordinates": [ 107.3125, -7.0625 ] } },
{ "type": "Feature", "properties": { "confidence": 0.3164, "scene_id": "idn_8s_108e_20260329", "status": "active", "ADM4_EN": "Cipelah", "ADM4_PCODE": "ID3204011001", "ADM4_REF": null, "ADM4ALT1EN": null, "ADM4ALT2EN": null, "ADM3_EN": "Rancabali", "ADM3_PCODE": "ID3204011", "ADM2_EN": "Bandung", "ADM2_PCODE": "ID3204", "ADM1_EN": "Jawa Barat", "ADM1_PCODE": "ID32", "ADM0_EN": "Indonesia", "ADM0_PCODE": "ID" }, "geometry": { "type": "Point", "coordinates": [ 107.3125, -7.1875 ] } },
{ "type": "Feature", "properties": { "confidence": 0.3354, "scene_id": "idn_8s_108e_20260329", "status": "active", "ADM4_EN": "Sugihmukti", "ADM4_PCODE": "ID3204020001", "ADM4_REF": null, "ADM4ALT1EN": null, "ADM4ALT2EN": null, "ADM3_EN": "Pasirjambu", "ADM3_PCODE": "ID3204020", "ADM2_EN": "Bandung", "ADM2_PCODE": "ID3204", "ADM1_EN": "Jawa Barat", "ADM1_PCODE": "ID32", "ADM0_EN": "Indonesia", "ADM0_PCODE": "ID" }, "geometry": { "type": "Point", "coordinates": [ 107.4375, -7.1875 ] } },
{ "type": "Feature", "properties": { "confidence": 0.2505, "scene_id": "idn_8s_108e_20260329", "status": "active", "ADM4_EN": "Pulosari", "ADM4_PCODE": "ID3204040006", "ADM4_REF": null, "ADM4ALT1EN": null, "ADM4ALT2EN": null, "ADM3_EN": "Pangalengan", "ADM3_PCODE": "ID3204040", "ADM2_EN": "Bandung", "ADM2_PCODE": "ID3204", "ADM1_EN": "Jawa Barat", "ADM1_PCODE": "ID32", "ADM0_EN": "Indonesia", "ADM0_PCODE": "ID" }, "geometry": { "type": "Point", "coordinates": [ 107.5625, -7.1875 ] } },
{ "type": "Feature", "properties": { "confidence": 0.2189, "scene_id": "idn_0n_100e_20260326", "processed_at": "2026-03-31T09:48:41.603558", "status": "active", "ADM4_EN": null, "ADM4_PCODE": null, "ADM4_REF": null, "ADM4ALT1EN": null, "ADM4ALT2EN": null, "ADM3_EN": null, "ADM3_PCODE": null, "ADM2_EN": null, "ADM2_PCODE": null, "ADM1_EN": null, "ADM1_PCODE": null, "ADM0_EN": null, "ADM0_PCODE": null }, "geometry": { "type": "Point", "coordinates": [ 99.0625, -0.0625 ] } },
{ "type": "Feature", "properties": { "confidence": 0.3633, "scene_id": "idn_0n_100e_20260326", "processed_at": "2026-03-31T09:48:41.603558", "status": "active", "ADM4_EN": null, "ADM4_PCODE": null, "ADM4_REF": null, "ADM4ALT1EN": null, "ADM4ALT2EN": null, "ADM3_EN": null, "ADM3_PCODE": null, "ADM2_EN": null, "ADM2_PCODE": null, "ADM1_EN": null, "ADM1_PCODE": null, "ADM0_EN": null, "ADM0_PCODE": null }, "geometry": { "type": "Point", "coordinates": [ 99.0625, -0.1875 ] } },
{ "type": "Feature", "properties": { "confidence": 0.2185, "scene_id": "idn_0n_124e_20260328", "processed_at": "2026-03-31T09:48:42.241045", "status": "active", "ADM4_EN": null, "ADM4_PCODE": null, "ADM4_REF": null, "ADM4ALT1EN": null, "ADM4ALT2EN": null, "ADM3_EN": null, "ADM3_PCODE": null, "ADM2_EN": null, "ADM2_PCODE": null, "ADM1_EN": null, "ADM1_PCODE": null, "ADM0_EN": null, "ADM0_PCODE": null }, "geometry": { "type": "Point", "coordinates": [ 124.3125, -0.8125 ] } },
{ "type": "Feature", "properties": { "confidence": 0.3722, "scene_id": "idn_0n_124e_20260328", "processed_at": "2026-03-31T09:48:42.241045", "status": "active", "ADM4_EN": null, "ADM4_PCODE": null, "ADM4_REF": null, "ADM4ALT1EN": null, "ADM4ALT2EN": null, "ADM3_EN": null, "ADM3_PCODE": null, "ADM2_EN": null, "ADM2_PCODE": null, "ADM1_EN": null, "ADM1_PCODE": null, "ADM0_EN": null, "ADM0_PCODE": null }, "geometry": { "type": "Point", "coordinates": [ 124.1875, -0.9375 ] } },
{ "type": "Feature", "properties": { "confidence": 0.2382, "scene_id": "idn_0n_124e_20260328", "processed_at": "2026-03-31T09:48:42.241045", "status": "active", "ADM4_EN": null, "ADM4_PCODE": null, "ADM4_REF": null, "ADM4ALT1EN": null, "ADM4ALT2EN": null, "ADM3_EN": null, "ADM3_PCODE": null, "ADM2_EN": null, "ADM2_PCODE": null, "ADM1_EN": null, "ADM1_PCODE": null, "ADM0_EN": null, "ADM0_PCODE": null }, "geometry": { "type": "Point", "coordinates": [ 124.3125, -0.9375 ] } },
{ "type": "Feature", "properties": { "confidence": 0.3308, "scene_id": "idn_0n_98e_20260326", "processed_at": "2026-03-31T09:48:42.564350", "status": "active", "ADM4_EN": null, "ADM4_PCODE": null, "ADM4_REF": null, "ADM4ALT1EN": null, "ADM4ALT2EN": null, "ADM3_EN": null, "ADM3_PCODE": null, "ADM2_EN": null, "ADM2_PCODE": null, "ADM1_EN": null, "ADM1_PCODE": null, "ADM0_EN": null, "ADM0_PCODE": null }, "geometry": { "type": "Point", "coordinates": [ 98.3125, -0.0625 ] } },
{ "type": "Feature", "properties": { "confidence": 0.2835, "scene_id": "idn_0n_98e_20260326", "processed_at": "2026-03-31T09:48:42.564350", "status": "active", "ADM4_EN": "Wawa", "ADM4_PCODE": "ID1214024001", "ADM4_REF": null, "ADM4ALT1EN": null, "ADM4ALT2EN": null, "ADM3_EN": "Pulau-Pulau Batu Utara", "ADM3_PCODE": "ID1214024", "ADM2_EN": "Nias Selatan", "ADM2_PCODE": "ID1214", "ADM1_EN": "Sumatera Utara", "ADM1_PCODE": "ID12", "ADM0_EN": "Indonesia", "ADM0_PCODE": "ID" }, "geometry": { "type": "Point", "coordinates": [ 98.4375, -0.0625 ] } },
{ "type": "Feature", "properties": { "confidence": 0.2026, "scene_id": "idn_0n_98e_20260326", "processed_at": "2026-03-31T09:48:42.564350", "status": "active", "ADM4_EN": null, "ADM4_PCODE": null, "ADM4_REF": null, "ADM4ALT1EN": null, "ADM4ALT2EN": null, "ADM3_EN": null, "ADM3_PCODE": null, "ADM2_EN": null, "ADM2_PCODE": null, "ADM1_EN": null, "ADM1_PCODE": null, "ADM0_EN": null, "ADM0_PCODE": null }, "geometry": { "type": "Point", "coordinates": [ 98.3125, -0.1875 ] } },
{ "type": "Feature", "properties": { "confidence": 0.3891, "scene_id": "idn_0n_98e_20260326", "processed_at": "2026-03-31T09:48:42.564350", "status": "active", "ADM4_EN": "Bawo Orudua", "ADM4_PCODE": "ID1214011006", "ADM4_REF": null, "ADM4ALT1EN": null, "ADM4ALT2EN": null, "ADM3_EN": "Tanah Masa", "ADM3_PCODE": "ID1214011", "ADM2_EN": "Nias Selatan", "ADM2_PCODE": "ID1214", "ADM1_EN": "Sumatera Utara", "ADM1_PCODE": "ID12", "ADM0_EN": "Indonesia", "ADM0_PCODE": "ID" }, "geometry": { "type": "Point", "coordinates": [ 98.4375, -0.1875 ] } },
{ "type": "Feature", "properties": { "confidence": 0.2887, "scene_id": "idn_0n_98e_20260326", "processed_at": "2026-03-31T09:48:42.564350", "status": "active", "ADM4_EN": "Sifauruasi", "ADM4_PCODE": "ID1214011003", "ADM4_REF": null, "ADM4ALT1EN": null, "ADM4ALT2EN": null, "ADM3_EN": "Tanah Masa", "ADM3_PCODE": "ID1214011", "ADM2_EN": "Nias Selatan", "ADM2_PCODE": "ID1214", "ADM1_EN": "Sumatera Utara", "ADM1_PCODE": "ID12", "ADM0_EN": "Indonesia", "ADM0_PCODE": "ID" }, "geometry": { "type": "Point", "coordinates": [ 98.4375, -0.3125 ] } },
{ "type": "Feature", "properties": { "confidence": 0.3827, "scene_id": "idn_0n_98e_20260326", "processed_at": "2026-03-31T09:48:42.564350", "status": "active", "ADM4_EN": "Saeru Melayu", "ADM4_PCODE": "ID1214011004", "ADM4_REF": null, "ADM4ALT1EN": null, "ADM4ALT2EN": null, "ADM3_EN": "Tanah Masa", "ADM3_PCODE": "ID1214011", "ADM2_EN": "Nias Selatan", "ADM2_PCODE": "ID1214", "ADM1_EN": "Sumatera Utara", "ADM1_PCODE": "ID12", "ADM0_EN": "Indonesia", "ADM0_PCODE": "ID" }, "geometry": { "type": "Point", "coordinates": [ 98.5625, -0.3125 ] } },
{ "type": "Feature", "properties": { "confidence": 0.3364, "scene_id": "idn_0n_98e_20260326", "processed_at": "2026-03-31T09:48:42.564350", "status": "active", "ADM4_EN": "Hilianombasela", "ADM4_PCODE": "ID1214010007", "ADM4_REF": null, "ADM4ALT1EN": null, "ADM4ALT2EN": null, "ADM3_EN": "Hibala", "ADM3_PCODE": "ID1214010", "ADM2_EN": "Nias Selatan", "ADM2_PCODE": "ID1214", "ADM1_EN": "Sumatera Utara", "ADM1_PCODE": "ID12", "ADM0_EN": "Indonesia", "ADM0_PCODE": "ID" }, "geometry": { "type": "Point", "coordinates": [ 98.4375, -0.4375 ] } },
{ "type": "Feature", "properties": { "confidence": 0.3503, "scene_id": "idn_0n_98e_20260326", "processed_at": "2026-03-31T09:48:42.564350", "status": "active", "ADM4_EN": null, "ADM4_PCODE": null, "ADM4_REF": null, "ADM4ALT1EN": null, "ADM4ALT2EN": null, "ADM3_EN": null, "ADM3_PCODE": null, "ADM2_EN": null, "ADM2_PCODE": null, "ADM1_EN": null, "ADM1_PCODE": null, "ADM0_EN": null, "ADM0_PCODE": null }, "geometry": { "type": "Point", "coordinates": [ 98.5625, -0.4375 ] } },
{ "type": "Feature", "properties": { "confidence": 0.455, "scene_id": "idn_0n_98e_20260326", "processed_at": "2026-03-31T09:48:42.564350", "status": "active", "ADM4_EN": null, "ADM4_PCODE": null, "ADM4_REF": null, "ADM4ALT1EN": null, "ADM4ALT2EN": null, "ADM3_EN": null, "ADM3_PCODE": null, "ADM2_EN": null, "ADM2_PCODE": null, "ADM1_EN": null, "ADM1_PCODE": null, "ADM0_EN": null, "ADM0_PCODE": null }, "geometry": { "type": "Point", "coordinates": [ 98.4375, -0.5625 ] } },
{ "type": "Feature", "properties": { "confidence": 0.285, "scene_id": "idn_0n_98e_20260326", "processed_at": "2026-03-31T09:48:42.564350", "status": "active", "ADM4_EN": null, "ADM4_PCODE": null, "ADM4_REF": null, "ADM4ALT1EN": null, "ADM4ALT2EN": null, "ADM3_EN": null, "ADM3_PCODE": null, "ADM2_EN": null, "ADM2_PCODE": null, "ADM1_EN": null, "ADM1_PCODE": null, "ADM0_EN": null, "ADM0_PCODE": null }, "geometry": { "type": "Point", "coordinates": [ 98.5625, -0.5625 ] } },
{ "type": "Feature", "properties": { "confidence": 0.3685, "scene_id": "idn_0n_98e_20260326", "processed_at": "2026-03-31T09:48:42.564350", "status": "active", "ADM4_EN": null, "ADM4_PCODE": null, "ADM4_REF": null, "ADM4ALT1EN": null, "ADM4ALT2EN": null, "ADM3_EN": null, "ADM3_PCODE": null, "ADM2_EN": null, "ADM2_PCODE": null, "ADM1_EN": null, "ADM1_PCODE": null, "ADM0_EN": null, "ADM0_PCODE": null }, "geometry": { "type": "Point", "coordinates": [ 98.8125, -0.5625 ] } },
{ "type": "Feature", "properties": { "confidence": 0.3662, "scene_id": "idn_0n_98e_20260326", "processed_at": "2026-03-31T09:48:42.564350", "status": "active", "ADM4_EN": null, "ADM4_PCODE": null, "ADM4_REF": null, "ADM4ALT1EN": null, "ADM4ALT2EN": null, "ADM3_EN": null, "ADM3_PCODE": null, "ADM2_EN": null, "ADM2_PCODE": null, "ADM1_EN": null, "ADM1_PCODE": null, "ADM0_EN": null, "ADM0_PCODE": null }, "geometry": { "type": "Point", "coordinates": [ 98.9375, -0.5625 ] } },
{ "type": "Feature", "properties": { "confidence": 0.2599, "scene_id": "idn_0n_98e_20260326", "processed_at": "2026-03-31T09:48:42.564350", "status": "active", "ADM4_EN": null, "ADM4_PCODE": null, "ADM4_REF": null, "ADM4ALT1EN": null, "ADM4ALT2EN": null, "ADM3_EN": null, "ADM3_PCODE": null, "ADM2_EN": null, "ADM2_PCODE": null, "ADM1_EN": null, "ADM1_PCODE": null, "ADM0_EN": null, "ADM0_PCODE": null }, "geometry": { "type": "Point", "coordinates": [ 98.5625, -0.6875 ] } },
{ "type": "Feature", "properties": { "confidence": 0.286, "scene_id": "idn_0n_98e_20260326", "processed_at": "2026-03-31T09:48:42.564350", "status": "active", "ADM4_EN": null, "ADM4_PCODE": null, "ADM4_REF": null, "ADM4ALT1EN": null, "ADM4ALT2EN": null, "ADM3_EN": null, "ADM3_PCODE": null, "ADM2_EN": null, "ADM2_PCODE": null, "ADM1_EN": null, "ADM1_PCODE": null, "ADM0_EN": null, "ADM0_PCODE": null }, "geometry": { "type": "Point", "coordinates": [ 98.6875, -0.6875 ] } },
{ "type": "Feature", "properties": { "confidence": 0.4821, "scene_id": "idn_0n_98e_20260326", "processed_at": "2026-03-31T09:48:42.564350", "status": "active", "ADM4_EN": null, "ADM4_PCODE": null, "ADM4_REF": null, "ADM4ALT1EN": null, "ADM4ALT2EN": null, "ADM3_EN": null, "ADM3_PCODE": null, "ADM2_EN": null, "ADM2_PCODE": null, "ADM1_EN": null, "ADM1_PCODE": null, "ADM0_EN": null, "ADM0_PCODE": null }, "geometry": { "type": "Point", "coordinates": [ 98.8125, -0.6875 ] } },
{ "type": "Feature", "properties": { "confidence": 0.3147, "scene_id": "idn_0n_98e_20260326", "processed_at": "2026-03-31T09:48:42.564350", "status": "active", "ADM4_EN": null, "ADM4_PCODE": null, "ADM4_REF": null, "ADM4ALT1EN": null, "ADM4ALT2EN": null, "ADM3_EN": null, "ADM3_PCODE": null, "ADM2_EN": null, "ADM2_PCODE": null, "ADM1_EN": null, "ADM1_PCODE": null, "ADM0_EN": null, "ADM0_PCODE": null }, "geometry": { "type": "Point", "coordinates": [ 98.9375, -0.6875 ] } },
{ "type": "Feature", "properties": { "confidence": 0.3253, "scene_id": "idn_0n_98e_20260326", "processed_at": "2026-03-31T09:48:42.564350", "status": "active", "ADM4_EN": null, "ADM4_PCODE": null, "ADM4_REF": null, "ADM4ALT1EN": null, "ADM4ALT2EN": null, "ADM3_EN": null, "ADM3_PCODE": null, "ADM2_EN": null, "ADM2_PCODE": null, "ADM1_EN": null, "ADM1_PCODE": null, "ADM0_EN": null, "ADM0_PCODE": null }, "geometry": { "type": "Point", "coordinates": [ 98.6875, -0.8125 ] } },
{ "type": "Feature", "properties": { "confidence": 0.2523, "scene_id": "idn_0n_98e_20260326", "processed_at": "2026-03-31T09:48:42.564350", "status": "active", "ADM4_EN": null, "ADM4_PCODE": null, "ADM4_REF": null, "ADM4ALT1EN": null, "ADM4ALT2EN": null, "ADM3_EN": null, "ADM3_PCODE": null, "ADM2_EN": null, "ADM2_PCODE": null, "ADM1_EN": null, "ADM1_PCODE": null, "ADM0_EN": null, "ADM0_PCODE": null }, "geometry": { "type": "Point", "coordinates": [ 98.8125, -0.8125 ] } },
{ "type": "Feature", "properties": { "confidence": 0.3586, "scene_id": "idn_0n_98e_20260326", "processed_at": "2026-03-31T09:48:42.564350", "status": "active", "ADM4_EN": null, "ADM4_PCODE": null, "ADM4_REF": null, "ADM4ALT1EN": null, "ADM4ALT2EN": null, "ADM3_EN": null, "ADM3_PCODE": null, "ADM2_EN": null, "ADM2_PCODE": null, "ADM1_EN": null, "ADM1_PCODE": null, "ADM0_EN": null, "ADM0_PCODE": null }, "geometry": { "type": "Point", "coordinates": [ 98.9375, -0.8125 ] } },
{ "type": "Feature", "properties": { "confidence": 0.428, "scene_id": "idn_0n_98e_20260326", "processed_at": "2026-03-31T09:48:42.564350", "status": "active", "ADM4_EN": null, "ADM4_PCODE": null, "ADM4_REF": null, "ADM4ALT1EN": null, "ADM4ALT2EN": null, "ADM3_EN": null, "ADM3_PCODE": null, "ADM2_EN": null, "ADM2_PCODE": null, "ADM1_EN": null, "ADM1_PCODE": null, "ADM0_EN": null, "ADM0_PCODE": null }, "geometry": { "type": "Point", "coordinates": [ 98.3125, -0.9375 ] } },
{ "type": "Feature", "properties": { "confidence": 0.2562, "scene_id": "idn_0n_98e_20260326", "processed_at": "2026-03-31T09:48:42.564350", "status": "active", "ADM4_EN": null, "ADM4_PCODE": null, "ADM4_REF": null, "ADM4ALT1EN": null, "ADM4ALT2EN": null, "ADM3_EN": null, "ADM3_PCODE": null, "ADM2_EN": null, "ADM2_PCODE": null, "ADM1_EN": null, "ADM1_PCODE": null, "ADM0_EN": null, "ADM0_PCODE": null }, "geometry": { "type": "Point", "coordinates": [ 98.4375, -0.9375 ] } },
{ "type": "Feature", "properties": { "confidence": 0.3381, "scene_id": "idn_0n_98e_20260326", "processed_at": "2026-03-31T09:48:42.564350", "status": "active", "ADM4_EN": null, "ADM4_PCODE": null, "ADM4_REF": null, "ADM4ALT1EN": null, "ADM4ALT2EN": null, "ADM3_EN": null, "ADM3_PCODE": null, "ADM2_EN": null, "ADM2_PCODE": null, "ADM1_EN": null, "ADM1_PCODE": null, "ADM0_EN": null, "ADM0_PCODE": null }, "geometry": { "type": "Point", "coordinates": [ 98.5625, -0.9375 ] } },
{ "type": "Feature", "properties": { "confidence": 0.2915, "scene_id": "idn_0n_98e_20260326", "processed_at": "2026-03-31T09:48:42.564350", "status": "active", "ADM4_EN": null, "ADM4_PCODE": null, "ADM4_REF": null, "ADM4ALT1EN": null, "ADM4ALT2EN": null, "ADM3_EN": null, "ADM3_PCODE": null, "ADM2_EN": null, "ADM2_PCODE": null, "ADM1_EN": null, "ADM1_PCODE": null, "ADM0_EN": null, "ADM0_PCODE": null }, "geometry": { "type": "Point", "coordinates": [ 98.6875, -0.9375 ] } },
{ "type": "Feature", "properties": { "confidence": 0.3419, "scene_id": "idn_2s_116e_20260327", "processed_at": "2026-03-31T09:48:44.119291", "status": "active", "ADM4_EN": "Sang Sang", "ADM4_PCODE": "ID6302160012", "ADM4_REF": null, "ADM4ALT1EN": null, "ADM4ALT2EN": null, "ADM3_EN": "Kelumpang Tengah", "ADM3_PCODE": "ID6302160", "ADM2_EN": "Kota Baru", "ADM2_PCODE": "ID6302", "ADM1_EN": "Kalimantan Selatan", "ADM1_PCODE": "ID63", "ADM0_EN": "Indonesia", "ADM0_PCODE": "ID" }, "geometry": { "type": "Point", "coordinates": [ 116.1875, -2.8125 ] } },
{ "type": "Feature", "properties": { "confidence": 0.2458, "scene_id": "idn_2s_116e_20260327", "processed_at": "2026-03-31T09:48:44.119291", "status": "active", "ADM4_EN": "Wilas", "ADM4_PCODE": "ID6302170007", "ADM4_REF": null, "ADM4ALT1EN": null, "ADM4ALT2EN": null, "ADM3_EN": "Kelumpang Utara", "ADM3_PCODE": "ID6302170", "ADM2_EN": "Kota Baru", "ADM2_PCODE": "ID6302", "ADM1_EN": "Kalimantan Selatan", "ADM1_PCODE": "ID63", "ADM0_EN": "Indonesia", "ADM0_PCODE": "ID" }, "geometry": { "type": "Point", "coordinates": [ 116.3125, -2.8125 ] } },
{ "type": "Feature", "properties": { "confidence": 0.2019, "scene_id": "idn_2s_116e_20260327", "processed_at": "2026-03-31T09:48:44.119291", "status": "active", "ADM4_EN": null, "ADM4_PCODE": null, "ADM4_REF": null, "ADM4ALT1EN": null, "ADM4ALT2EN": null, "ADM3_EN": null, "ADM3_PCODE": null, "ADM2_EN": null, "ADM2_PCODE": null, "ADM1_EN": null, "ADM1_PCODE": null, "ADM0_EN": null, "ADM0_PCODE": null }, "geometry": { "type": "Point", "coordinates": [ 116.5625, -2.8125 ] } },
{ "type": "Feature", "properties": { "confidence": 0.3968, "scene_id": "idn_2s_116e_20260327", "processed_at": "2026-03-31T09:48:44.119291", "status": "active", "ADM4_EN": "Sembilang", "ADM4_PCODE": "ID6302160009", "ADM4_REF": null, "ADM4ALT1EN": null, "ADM4ALT2EN": null, "ADM3_EN": "Kelumpang Tengah", "ADM3_PCODE": "ID6302160", "ADM2_EN": "Kota Baru", "ADM2_PCODE": "ID6302", "ADM1_EN": "Kalimantan Selatan", "ADM1_PCODE": "ID63", "ADM0_EN": "Indonesia", "ADM0_PCODE": "ID" }, "geometry": { "type": "Point", "coordinates": [ 116.1875, -2.9375 ] } },
{ "type": "Feature", "properties": { "confidence": 0.2837, "scene_id": "idn_2s_116e_20260327", "processed_at": "2026-03-31T09:48:44.119291", "status": "active", "ADM4_EN": "Sungai Hanyar", "ADM4_PCODE": "ID6302170001", "ADM4_REF": null, "ADM4ALT1EN": null, "ADM4ALT2EN": null, "ADM3_EN": "Kelumpang Utara", "ADM3_PCODE": "ID6302170", "ADM2_EN": "Kota Baru", "ADM2_PCODE": "ID6302", "ADM1_EN": "Kalimantan Selatan", "ADM1_PCODE": "ID63", "ADM0_EN": "Indonesia", "ADM0_PCODE": "ID" }, "geometry": { "type": "Point", "coordinates": [ 116.3125, -2.9375 ] } },
{ "type": "Feature", "properties": { "confidence": 0.2111, "scene_id": "idn_2s_116e_20260327", "processed_at": "2026-03-31T09:48:44.119291", "status": "active", "ADM4_EN": null, "ADM4_PCODE": null, "ADM4_REF": null, "ADM4ALT1EN": null, "ADM4ALT2EN": null, "ADM3_EN": null, "ADM3_PCODE": null, "ADM2_EN": null, "ADM2_PCODE": null, "ADM1_EN": null, "ADM1_PCODE": null, "ADM0_EN": null, "ADM0_PCODE": null }, "geometry": { "type": "Point", "coordinates": [ 116.4375, -2.9375 ] } },
{ "type": "Feature", "properties": { "confidence": 0.341, "scene_id": "idn_2s_130e_20260325", "processed_at": "2026-03-31T09:48:44.418298", "status": "active", "ADM4_EN": null, "ADM4_PCODE": null, "ADM4_REF": null, "ADM4ALT1EN": null, "ADM4ALT2EN": null, "ADM3_EN": null, "ADM3_PCODE": null, "ADM2_EN": null, "ADM2_PCODE": null, "ADM1_EN": null, "ADM1_PCODE": null, "ADM0_EN": null, "ADM0_PCODE": null }, "geometry": { "type": "Point", "coordinates": [ 129.0625, -1.0625 ] } },
{ "type": "Feature", "properties": { "confidence": 0.4047, "scene_id": "idn_2s_130e_20260325", "processed_at": "2026-03-31T09:48:44.418298", "status": "active", "ADM4_EN": null, "ADM4_PCODE": null, "ADM4_REF": null, "ADM4ALT1EN": null, "ADM4ALT2EN": null, "ADM3_EN": null, "ADM3_PCODE": null, "ADM2_EN": null, "ADM2_PCODE": null, "ADM1_EN": null, "ADM1_PCODE": null, "ADM0_EN": null, "ADM0_PCODE": null }, "geometry": { "type": "Point", "coordinates": [ 129.0625, -1.1875 ] } },
{ "type": "Feature", "properties": { "confidence": 0.2937, "scene_id": "idn_2s_130e_20260325", "processed_at": "2026-03-31T09:48:44.418298", "status": "active", "ADM4_EN": null, "ADM4_PCODE": null, "ADM4_REF": null, "ADM4ALT1EN": null, "ADM4ALT2EN": null, "ADM3_EN": null, "ADM3_PCODE": null, "ADM2_EN": null, "ADM2_PCODE": null, "ADM1_EN": null, "ADM1_PCODE": null, "ADM0_EN": null, "ADM0_PCODE": null }, "geometry": { "type": "Point", "coordinates": [ 129.1875, -1.1875 ] } },
{ "type": "Feature", "properties": { "confidence": 0.4517, "scene_id": "idn_2s_130e_20260325", "processed_at": "2026-03-31T09:48:44.419303", "status": "active", "ADM4_EN": null, "ADM4_PCODE": null, "ADM4_REF": null, "ADM4ALT1EN": null, "ADM4ALT2EN": null, "ADM3_EN": null, "ADM3_PCODE": null, "ADM2_EN": null, "ADM2_PCODE": null, "ADM1_EN": null, "ADM1_PCODE": null, "ADM0_EN": null, "ADM0_PCODE": null }, "geometry": { "type": "Point", "coordinates": [ 129.0625, -1.3125 ] } },
{ "type": "Feature", "properties": { "confidence": 0.3059, "scene_id": "idn_2s_130e_20260325", "processed_at": "2026-03-31T09:48:44.419303", "status": "active", "ADM4_EN": null, "ADM4_PCODE": null, "ADM4_REF": null, "ADM4ALT1EN": null, "ADM4ALT2EN": null, "ADM3_EN": null, "ADM3_PCODE": null, "ADM2_EN": null, "ADM2_PCODE": null, "ADM1_EN": null, "ADM1_PCODE": null, "ADM0_EN": null, "ADM0_PCODE": null }, "geometry": { "type": "Point", "coordinates": [ 129.1875, -1.3125 ] } },
{ "type": "Feature", "properties": { "confidence": 0.2959, "scene_id": "idn_2s_130e_20260325", "processed_at": "2026-03-31T09:48:44.419303", "status": "active", "ADM4_EN": null, "ADM4_PCODE": null, "ADM4_REF": null, "ADM4ALT1EN": null, "ADM4ALT2EN": null, "ADM3_EN": null, "ADM3_PCODE": null, "ADM2_EN": null, "ADM2_PCODE": null, "ADM1_EN": null, "ADM1_PCODE": null, "ADM0_EN": null, "ADM0_PCODE": null }, "geometry": { "type": "Point", "coordinates": [ 129.0625, -1.4375 ] } },
{ "type": "Feature", "properties": { "confidence": 0.421, "scene_id": "idn_2s_130e_20260325", "processed_at": "2026-03-31T09:48:44.419303", "status": "active", "ADM4_EN": null, "ADM4_PCODE": null, "ADM4_REF": null, "ADM4ALT1EN": null, "ADM4ALT2EN": null, "ADM3_EN": null, "ADM3_PCODE": null, "ADM2_EN": null, "ADM2_PCODE": null, "ADM1_EN": null, "ADM1_PCODE": null, "ADM0_EN": null, "ADM0_PCODE": null }, "geometry": { "type": "Point", "coordinates": [ 129.0625, -1.5625 ] } },
{ "type": "Feature", "properties": { "confidence": 0.35, "scene_id": "idn_2s_130e_20260325", "processed_at": "2026-03-31T09:48:44.419303", "status": "active", "ADM4_EN": null, "ADM4_PCODE": null, "ADM4_REF": null, "ADM4ALT1EN": null, "ADM4ALT2EN": null, "ADM3_EN": null, "ADM3_PCODE": null, "ADM2_EN": null, "ADM2_PCODE": null, "ADM1_EN": null, "ADM1_PCODE": null, "ADM0_EN": null, "ADM0_PCODE": null }, "geometry": { "type": "Point", "coordinates": [ 129.0625, -1.6875 ] } },
{ "type": "Feature", "properties": { "confidence": 0.2297, "scene_id": "idn_2s_130e_20260325", "processed_at": "2026-03-31T09:48:44.419303", "status": "active", "ADM4_EN": null, "ADM4_PCODE": null, "ADM4_REF": null, "ADM4ALT1EN": null, "ADM4ALT2EN": null, "ADM3_EN": null, "ADM3_PCODE": null, "ADM2_EN": null, "ADM2_PCODE": null, "ADM1_EN": null, "ADM1_PCODE": null, "ADM0_EN": null, "ADM0_PCODE": null }, "geometry": { "type": "Point", "coordinates": [ 129.0625, -1.8125 ] } },
{ "type": "Feature", "properties": { "confidence": 0.35, "scene_id": "idn_2s_136e_20260325", "processed_at": "2026-03-31T09:48:45.108045", "status": "active", "ADM4_EN": null, "ADM4_PCODE": null, "ADM4_REF": null, "ADM4ALT1EN": null, "ADM4ALT2EN": null, "ADM3_EN": null, "ADM3_PCODE": null, "ADM2_EN": null, "ADM2_PCODE": null, "ADM1_EN": null, "ADM1_PCODE": null, "ADM0_EN": null, "ADM0_PCODE": null }, "geometry": { "type": "Point", "coordinates": [ 136.5625, -1.6875 ] } },
{ "type": "Feature", "properties": { "confidence": 0.4185, "scene_id": "idn_2s_136e_20260325", "processed_at": "2026-03-31T09:48:45.108045", "status": "active", "ADM4_EN": null, "ADM4_PCODE": null, "ADM4_REF": null, "ADM4ALT1EN": null, "ADM4ALT2EN": null, "ADM3_EN": null, "ADM3_PCODE": null, "ADM2_EN": null, "ADM2_PCODE": null, "ADM1_EN": null, "ADM1_PCODE": null, "ADM0_EN": null, "ADM0_PCODE": null }, "geometry": { "type": "Point", "coordinates": [ 136.6875, -1.6875 ] } },
{ "type": "Feature", "properties": { "confidence": 0.3427, "scene_id": "idn_2s_136e_20260325", "processed_at": "2026-03-31T09:48:45.108045", "status": "active", "ADM4_EN": null, "ADM4_PCODE": null, "ADM4_REF": null, "ADM4ALT1EN": null, "ADM4ALT2EN": null, "ADM3_EN": null, "ADM3_PCODE": null, "ADM2_EN": null, "ADM2_PCODE": null, "ADM1_EN": null, "ADM1_PCODE": null, "ADM0_EN": null, "ADM0_PCODE": null }, "geometry": { "type": "Point", "coordinates": [ 136.8125, -1.6875 ] } },
{ "type": "Feature", "properties": { "confidence": 0.2509, "scene_id": "idn_2s_136e_20260325", "processed_at": "2026-03-31T09:48:45.108045", "status": "active", "ADM4_EN": "Nunsembai", "ADM4_PCODE": "ID9408040013", "ADM4_REF": null, "ADM4ALT1EN": null, "ADM4ALT2EN": null, "ADM3_EN": "Yapen Timur", "ADM3_PCODE": "ID9408040", "ADM2_EN": "Kepulauan Yapen", "ADM2_PCODE": "ID9408", "ADM1_EN": "Papua", "ADM1_PCODE": "ID94", "ADM0_EN": "Indonesia", "ADM0_PCODE": "ID" }, "geometry": { "type": "Point", "coordinates": [ 136.6875, -1.8125 ] } },
{ "type": "Feature", "properties": { "confidence": 0.253, "scene_id": "idn_2s_136e_20260325", "processed_at": "2026-03-31T09:48:45.108045", "status": "active", "ADM4_EN": "Nunsyiari", "ADM4_PCODE": "ID9408040017", "ADM4_REF": null, "ADM4ALT1EN": null, "ADM4ALT2EN": null, "ADM3_EN": "Yapen Timur", "ADM3_PCODE": "ID9408040", "ADM2_EN": "Kepulauan Yapen", "ADM2_PCODE": "ID9408", "ADM1_EN": "Papua", "ADM1_PCODE": "ID94", "ADM0_EN": "Indonesia", "ADM0_PCODE": "ID" }, "geometry": { "type": "Point", "coordinates": [ 136.8125, -1.8125 ] } },
{ "type": "Feature", "properties": { "confidence": 0.2258, "scene_id": "idn_4n_116e_20260328", "processed_at": "2026-03-31T09:48:45.756014", "status": "active", "ADM4_EN": null, "ADM4_PCODE": null, "ADM4_REF": null, "ADM4ALT1EN": null, "ADM4ALT2EN": null, "ADM3_EN": null, "ADM3_PCODE": null, "ADM2_EN": null, "ADM2_PCODE": null, "ADM1_EN": null, "ADM1_PCODE": null, "ADM0_EN": null, "ADM0_PCODE": null }, "geometry": { "type": "Point", "coordinates": [ 115.1875, 4.8125 ] } },
{ "type": "Feature", "properties": { "confidence": 0.3413, "scene_id": "idn_4s_108e_20260329", "processed_at": "2026-03-31T09:48:46.436843", "status": "active", "ADM4_EN": null, "ADM4_PCODE": null, "ADM4_REF": null, "ADM4ALT1EN": null, "ADM4ALT2EN": null, "ADM3_EN": null, "ADM3_PCODE": null, "ADM2_EN": null, "ADM2_PCODE": null, "ADM1_EN": null, "ADM1_PCODE": null, "ADM0_EN": null, "ADM0_PCODE": null }, "geometry": { "type": "Point", "coordinates": [ 107.1875, -3.6875 ] } },
{ "type": "Feature", "properties": { "confidence": 0.2766, "scene_id": "idn_4s_108e_20260329", "processed_at": "2026-03-31T09:48:46.436843", "status": "active", "ADM4_EN": null, "ADM4_PCODE": null, "ADM4_REF": null, "ADM4ALT1EN": null, "ADM4ALT2EN": null, "ADM3_EN": null, "ADM3_PCODE": null, "ADM2_EN": null, "ADM2_PCODE": null, "ADM1_EN": null, "ADM1_PCODE": null, "ADM0_EN": null, "ADM0_PCODE": null }, "geometry": { "type": "Point", "coordinates": [ 107.3125, -3.6875 ] } },
{ "type": "Feature", "properties": { "confidence": 0.2924, "scene_id": "idn_6s_108e_20260329", "processed_at": "2026-03-31T09:48:48.039363", "status": "active", "ADM4_EN": "Mariuk", "ADM4_PCODE": "ID3213171004", "ADM4_REF": null, "ADM4ALT1EN": null, "ADM4ALT2EN": null, "ADM3_EN": "Tambakdahan", "ADM3_PCODE": "ID3213171", "ADM2_EN": "Subang", "ADM2_PCODE": "ID3213", "ADM1_EN": "Jawa Barat", "ADM1_PCODE": "ID32", "ADM0_EN": "Indonesia", "ADM0_PCODE": "ID" }, "geometry": { "type": "Point", "coordinates": [ 107.8125, -6.3125 ] } },
{ "type": "Feature", "properties": { "confidence": 0.3602, "scene_id": "idn_6s_108e_20260329", "processed_at": "2026-03-31T09:48:48.039363", "status": "active", "ADM4_EN": "Sukrawetan", "ADM4_PCODE": "ID3212220005", "ADM4_REF": null, "ADM4ALT1EN": null, "ADM4ALT2EN": null, "ADM3_EN": "Sukra", "ADM3_PCODE": "ID3212220", "ADM2_EN": "Indramayu", "ADM2_PCODE": "ID3212", "ADM1_EN": "Jawa Barat", "ADM1_PCODE": "ID32", "ADM0_EN": "Indonesia", "ADM0_PCODE": "ID" }, "geometry": { "type": "Point", "coordinates": [ 107.9375, -6.3125 ] } },
{ "type": "Feature", "properties": { "confidence": 0.2333, "scene_id": "idn_8s_108e_20260329", "processed_at": "2026-03-31T09:48:48.989320", "status": "active", "ADM4_EN": "Sukabungah", "ADM4_PCODE": "ID3203111003", "ADM4_REF": null, "ADM4ALT1EN": null, "ADM4ALT2EN": null, "ADM3_EN": "Campaka Mulya", "ADM3_PCODE": "ID3203111", "ADM2_EN": "Cianjur", "ADM2_PCODE": "ID3203", "ADM1_EN": "Jawa Barat", "ADM1_PCODE": "ID32", "ADM0_EN": "Indonesia", "ADM0_PCODE": "ID" }, "geometry": { "type": "Point", "coordinates": [ 107.1875, -7.0625 ] } },
{ "type": "Feature", "properties": { "confidence": 0.3252, "scene_id": "idn_8s_108e_20260329", "processed_at": "2026-03-31T09:48:48.989320", "status": "active", "ADM4_EN": "Gununghalu", "ADM4_PCODE": "ID3217020005", "ADM4_REF": null, "ADM4ALT1EN": null, "ADM4ALT2EN": null, "ADM3_EN": "Gununghalu", "ADM3_PCODE": "ID3217020", "ADM2_EN": "Bandung Barat", "ADM2_PCODE": "ID3217", "ADM1_EN": "Jawa Barat", "ADM1_PCODE": "ID32", "ADM0_EN": "Indonesia", "ADM0_PCODE": "ID" }, "geometry": { "type": "Point", "coordinates": [ 107.3125, -7.0625 ] } },
{ "type": "Feature", "properties": { "confidence": 0.3164, "scene_id": "idn_8s_108e_20260329", "processed_at": "2026-03-31T09:48:48.989320", "status": "active", "ADM4_EN": "Cipelah", "ADM4_PCODE": "ID3204011001", "ADM4_REF": null, "ADM4ALT1EN": null, "ADM4ALT2EN": null, "ADM3_EN": "Rancabali", "ADM3_PCODE": "ID3204011", "ADM2_EN": "Bandung", "ADM2_PCODE": "ID3204", "ADM1_EN": "Jawa Barat", "ADM1_PCODE": "ID32", "ADM0_EN": "Indonesia", "ADM0_PCODE": "ID" }, "geometry": { "type": "Point", "coordinates": [ 107.3125, -7.1875 ] } },
{ "type": "Feature", "properties": { "confidence": 0.3354, "scene_id": "idn_8s_108e_20260329", "processed_at": "2026-03-31T09:48:48.989320", "status": "active", "ADM4_EN": "Sugihmukti", "ADM4_PCODE": "ID3204020001", "ADM4_REF": null, "ADM4ALT1EN": null, "ADM4ALT2EN": null, "ADM3_EN": "Pasirjambu", "ADM3_PCODE": "ID3204020", "ADM2_EN": "Bandung", "ADM2_PCODE": "ID3204", "ADM1_EN": "Jawa Barat", "ADM1_PCODE": "ID32", "ADM0_EN": "Indonesia", "ADM0_PCODE": "ID" }, "geometry": { "type": "Point", "coordinates": [ 107.4375, -7.1875 ] } },
{ "type": "Feature", "properties": { "confidence": 0.2505, "scene_id": "idn_8s_108e_20260329", "processed_at": "2026-03-31T09:48:48.989320", "status": "active", "ADM4_EN": "Pulosari", "ADM4_PCODE": "ID3204040006", "ADM4_REF": null, "ADM4ALT1EN": null, "ADM4ALT2EN": null, "ADM3_EN": "Pangalengan", "ADM3_PCODE": "ID3204040", "ADM2_EN": "Bandung", "ADM2_PCODE": "ID3204", "ADM1_EN": "Jawa Barat", "ADM1_PCODE": "ID32", "ADM0_EN": "Indonesia", "ADM0_PCODE": "ID" }, "geometry": { "type": "Point", "coordinates": [ 107.5625, -7.1875 ] } },
{ "type": "Feature", "properties": { "confidence": 0.2606, "scene_id": "idn_8s_114e_20260330", "processed_at": "2026-03-31T09:48:49.296971", "status": "active", "ADM4_EN": null, "ADM4_PCODE": null, "ADM4_REF": null, "ADM4ALT1EN": null, "ADM4ALT2EN": null, "ADM3_EN": null, "ADM3_PCODE": null, "ADM2_EN": null, "ADM2_PCODE": null, "ADM1_EN": null, "ADM1_PCODE": null, "ADM0_EN": null, "ADM0_PCODE": null }, "geometry": { "type": "Point", "coordinates": [ 114.3125, -7.3125 ] } },
{ "type": "Feature", "properties": { "confidence": 0.43, "scene_id": "idn_8s_114e_20260330", "processed_at": "2026-03-31T09:48:49.296971", "status": "active", "ADM4_EN": null, "ADM4_PCODE": null, "ADM4_REF": null, "ADM4ALT1EN": null, "ADM4ALT2EN": null, "ADM3_EN": null, "ADM3_PCODE": null, "ADM2_EN": null, "ADM2_PCODE": null, "ADM1_EN": null, "ADM1_PCODE": null, "ADM0_EN": null, "ADM0_PCODE": null }, "geometry": { "type": "Point", "coordinates": [ 114.4375, -7.3125 ] } },
{ "type": "Feature", "properties": { "confidence": 0.4643, "scene_id": "idn_8s_114e_20260330", "processed_at": "2026-03-31T09:48:49.296971", "status": "active", "ADM4_EN": null, "ADM4_PCODE": null, "ADM4_REF": null, "ADM4ALT1EN": null, "ADM4ALT2EN": null, "ADM3_EN": null, "ADM3_PCODE": null, "ADM2_EN": null, "ADM2_PCODE": null, "ADM1_EN": null, "ADM1_PCODE": null, "ADM0_EN": null, "ADM0_PCODE": null }, "geometry": { "type": "Point", "coordinates": [ 114.5625, -7.3125 ] } },
{ "type": "Feature", "properties": { "confidence": 0.3715, "scene_id": "idn_8s_114e_20260330", "processed_at": "2026-03-31T09:48:49.296971", "status": "active", "ADM4_EN": null, "ADM4_PCODE": null, "ADM4_REF": null, "ADM4ALT1EN": null, "ADM4ALT2EN": null, "ADM3_EN": null, "ADM3_PCODE": null, "ADM2_EN": null, "ADM2_PCODE": null, "ADM1_EN": null, "ADM1_PCODE": null, "ADM0_EN": null, "ADM0_PCODE": null }, "geometry": { "type": "Point", "coordinates": [ 114.4375, -7.4375 ] } },
{ "type": "Feature", "properties": { "confidence": 0.4025, "scene_id": "idn_8s_114e_20260330", "processed_at": "2026-03-31T09:48:49.296971", "status": "active", "ADM4_EN": null, "ADM4_PCODE": null, "ADM4_REF": null, "ADM4ALT1EN": null, "ADM4ALT2EN": null, "ADM3_EN": null, "ADM3_PCODE": null, "ADM2_EN": null, "ADM2_PCODE": null, "ADM1_EN": null, "ADM1_PCODE": null, "ADM0_EN": null, "ADM0_PCODE": null }, "geometry": { "type": "Point", "coordinates": [ 114.5625, -7.4375 ] } },
{ "type": "Feature", "properties": { "confidence": 0.2147, "scene_id": "idn_8s_114e_20260330", "processed_at": "2026-03-31T09:48:49.296971", "status": "active", "ADM4_EN": null, "ADM4_PCODE": null, "ADM4_REF": null, "ADM4ALT1EN": null, "ADM4ALT2EN": null, "ADM3_EN": null, "ADM3_PCODE": null, "ADM2_EN": null, "ADM2_PCODE": null, "ADM1_EN": null, "ADM1_PCODE": null, "ADM0_EN": null, "ADM0_PCODE": null }, "geometry": { "type": "Point", "coordinates": [ 114.3125, -7.5625 ] } },
{ "type": "Feature", "properties": { "confidence": 0.4358, "scene_id": "idn_8s_114e_20260330", "processed_at": "2026-03-31T09:48:49.296971", "status": "active", "ADM4_EN": null, "ADM4_PCODE": null, "ADM4_REF": null, "ADM4ALT1EN": null, "ADM4ALT2EN": null, "ADM3_EN": null, "ADM3_PCODE": null, "ADM2_EN": null, "ADM2_PCODE": null, "ADM1_EN": null, "ADM1_PCODE": null, "ADM0_EN": null, "ADM0_PCODE": null }, "geometry": { "type": "Point", "coordinates": [ 114.4375, -7.5625 ] } },
{ "type": "Feature", "properties": { "confidence": 0.3663, "scene_id": "idn_8s_114e_20260330", "processed_at": "2026-03-31T09:48:49.296971", "status": "active", "ADM4_EN": null, "ADM4_PCODE": null, "ADM4_REF": null, "ADM4ALT1EN": null, "ADM4ALT2EN": null, "ADM3_EN": null, "ADM3_PCODE": null, "ADM2_EN": null, "ADM2_PCODE": null, "ADM1_EN": null, "ADM1_PCODE": null, "ADM0_EN": null, "ADM0_PCODE": null }, "geometry": { "type": "Point", "coordinates": [ 114.5625, -7.5625 ] } },
{ "type": "Feature", "properties": { "confidence": 0.2993, "scene_id": "idn_8s_114e_20260330", "processed_at": "2026-03-31T09:48:49.296971", "status": "active", "ADM4_EN": null, "ADM4_PCODE": null, "ADM4_REF": null, "ADM4ALT1EN": null, "ADM4ALT2EN": null, "ADM3_EN": null, "ADM3_PCODE": null, "ADM2_EN": null, "ADM2_PCODE": null, "ADM1_EN": null, "ADM1_PCODE": null, "ADM0_EN": null, "ADM0_PCODE": null }, "geometry": { "type": "Point", "coordinates": [ 114.6875, -7.5625 ] } },
{ "type": "Feature", "properties": { "confidence": 0.2643, "scene_id": "idn_8s_114e_20260330", "processed_at": "2026-03-31T09:48:49.296971", "status": "active", "ADM4_EN": null, "ADM4_PCODE": null, "ADM4_REF": null, "ADM4ALT1EN": null, "ADM4ALT2EN": null, "ADM3_EN": null, "ADM3_PCODE": null, "ADM2_EN": null, "ADM2_PCODE": null, "ADM1_EN": null, "ADM1_PCODE": null, "ADM0_EN": null, "ADM0_PCODE": null }, "geometry": { "type": "Point", "coordinates": [ 114.4375, -7.6875 ] } },
{ "type": "Feature", "properties": { "confidence": 0.218, "scene_id": "idn_8s_114e_20260330", "processed_at": "2026-03-31T09:48:49.296971", "status": "active", "ADM4_EN": "Watukebo", "ADM4_PCODE": "ID3510210010", "ADM4_REF": null, "ADM4ALT1EN": null, "ADM4ALT2EN": null, "ADM3_EN": "Wongsorejo", "ADM3_PCODE": "ID3510210", "ADM2_EN": "Banyuwangi", "ADM2_PCODE": "ID3510", "ADM1_EN": "Jawa Timur", "ADM1_PCODE": "ID35", "ADM0_EN": "Indonesia", "ADM0_PCODE": "ID" }, "geometry": { "type": "Point", "coordinates": [ 114.3125, -7.9375 ] } },
{ "type": "Feature", "properties": { "confidence": 0.2202, "scene_id": "idn_8s_114e_20260330", "processed_at": "2026-03-31T09:48:49.296971", "status": "active", "ADM4_EN": "Sumber Klampok", "ADM4_PCODE": "ID5108010001", "ADM4_REF": null, "ADM4ALT1EN": null, "ADM4ALT2EN": null, "ADM3_EN": "Gerokgak", "ADM3_PCODE": "ID5108010", "ADM2_EN": "Buleleng", "ADM2_PCODE": "ID5108", "ADM1_EN": "Bali", "ADM1_PCODE": "ID51", "ADM0_EN": "Indonesia", "ADM0_PCODE": "ID" }, "geometry": { "type": "Point", "coordinates": [ 114.5625, -8.1875 ] } }
]
}
